{"type":"FeatureCollection","features":[{"type":"Feature","properties":{"name":"Afghanistan"},"geometry":{"type":"Polygon","coordinates":[[[61.210817,35.650072],[62.230651,35.270664],[62.984662,35.404041],[63.193538,35.857166],[63.982896,36.007957],[64.546479,36.312073],[64.746105,37.111818],[65.588948,37.305217],[65.745631,37.661164],[66.217385,37.39379],[66.518607,37.362784],[67.075782,37.356144],[67.83,37.144994],[68.135562,37.023115],[68.859446,37.344336],[69.196273,37.151144],[69.518785,37.608997],[70.116578,37.588223],[70.270574,37.735165],[70.376304,38.138396],[70.806821,38.486282],[71.348131,38.258905],[71.239404,37.953265],[71.541918,37.905774],[71.448693,37.065645],[71.844638,36.738171],[72.193041,36.948288],[72.63689,37.047558],[73.260056,37.495257],[73.948696,37.421566],[74.980002,37.41999],[75.158028,37.133031],[74.575893,37.020841],[74.067552,36.836176],[72.920025,36.720007],[71.846292,36.509942],[71.262348,36.074388],[71.498768,35.650563],[71.613076,35.153203],[71.115019,34.733126],[71.156773,34.348911],[70.881803,33.988856],[69.930543,34.02012],[70.323594,33.358533],[69.687147,33.105499],[69.262522,32.501944],[69.317764,31.901412],[68.926677,31.620189],[68.556932,31.71331],[67.792689,31.58293],[67.683394,31.303154],[66.938891,31.304911],[66.381458,30.738899],[66.346473,29.887943],[65.046862,29.472181],[64.350419,29.560031],[64.148002,29.340819],[63.550261,29.468331],[62.549857,29.318572],[60.874248,29.829239],[61.781222,30.73585],[61.699314,31.379506],[60.941945,31.548075],[60.863655,32.18292],[60.536078,32.981269],[60.9637,33.528832],[60.52843,33.676446],[60.803193,34.404102],[61.210817,35.650072]]]},"id":"AFG"},{"type":"Feature","properties":{"name":"United Arab Emirates"},"geometry":{"type":"Polygon","coordinates":[[[51.579519,24.245497],[51.757441,24.294073],[51.794389,24.019826],[52.577081,24.177439],[53.404007,24.151317],[54.008001,24.121758],[54.693024,24.797892],[55.439025,25.439145],[56.070821,26.055464],[56.261042,25.714606],[56.396847,24.924732],[55.886233,24.920831],[55.804119,24.269604],[55.981214,24.130543],[55.528632,23.933604],[55.525841,23.524869],[55.234489,23.110993],[55.208341,22.70833],[55.006803,22.496948],[52.000733,23.001154],[51.617708,24.014219],[51.579519,24.245497]]]},"id":"ARE"},{"type":"Feature","properties":{"name":"Armenia"},"geometry":{"type":"Polygon","coordinates":[[[43.582746,41.092143],[44.97248,41.248129],[45.179496,40.985354],[45.560351,40.81229],[45.359175,40.561504],[45.891907,40.218476],[45.610012,39.899994],[46.034534,39.628021],[46.483499,39.464155],[46.50572,38.770605],[46.143623,38.741201],[45.735379,39.319719],[45.739978,39.473999],[45.298145,39.471751],[45.001987,39.740004],[44.79399,39.713003],[44.400009,40.005],[43.656436,40.253564],[43.752658,40.740201],[43.582746,41.092143]]]},"id":"ARM"},{"type":"Feature","properties":{"name":"Australia"},"geometry":{"type":"MultiPolygon","coordinates":[[[[145.397978,-40.792549],[146.364121,-41.137695],[146.908584,-41.000546],[147.689259,-40.808258],[148.289068,-40.875438],[148.359865,-42.062445],[148.017301,-42.407024],[147.914052,-43.211522],[147.564564,-42.937689],[146.870343,-43.634597],[146.663327,-43.580854],[146.048378,-43.549745],[145.43193,-42.693776],[145.29509,-42.03361],[144.718071,-41.162552],[144.743755,-40.703975],[145.397978,-40.792549]]],[[[143.561811,-13.763656],[143.922099,-14.548311],[144.563714,-14.171176],[144.894908,-14.594458],[145.374724,-14.984976],[145.271991,-15.428205],[145.48526,-16.285672],[145.637033,-16.784918],[145.888904,-16.906926],[146.160309,-17.761655],[146.063674,-18.280073],[146.387478,-18.958274],[147.471082,-19.480723],[148.177602,-19.955939],[148.848414,-20.39121],[148.717465,-20.633469],[149.28942,-21.260511],[149.678337,-22.342512],[150.077382,-22.122784],[150.482939,-22.556142],[150.727265,-22.402405],[150.899554,-23.462237],[151.609175,-24.076256],[152.07354,-24.457887],[152.855197,-25.267501],[153.136162,-26.071173],[153.161949,-26.641319],[153.092909,-27.2603],[153.569469,-28.110067],[153.512108,-28.995077],[153.339095,-29.458202],[153.069241,-30.35024],[153.089602,-30.923642],[152.891578,-31.640446],[152.450002,-32.550003],[151.709117,-33.041342],[151.343972,-33.816023],[151.010555,-34.31036],[150.714139,-35.17346],[150.32822,-35.671879],[150.075212,-36.420206],[149.946124,-37.109052],[149.997284,-37.425261],[149.423882,-37.772681],[148.304622,-37.809061],[147.381733,-38.219217],[146.922123,-38.606532],[146.317922,-39.035757],[145.489652,-38.593768],[144.876976,-38.417448],[145.032212,-37.896188],[144.485682,-38.085324],[143.609974,-38.809465],[142.745427,-38.538268],[142.17833,-38.380034],[141.606582,-38.308514],[140.638579,-38.019333],[139.992158,-37.402936],[139.806588,-36.643603],[139.574148,-36.138362],[139.082808,-35.732754],[138.120748,-35.612296],[138.449462,-35.127261],[138.207564,-34.384723],[137.71917,-35.076825],[136.829406,-35.260535],[137.352371,-34.707339],[137.503886,-34.130268],[137.890116,-33.640479],[137.810328,-32.900007],[136.996837,-33.752771],[136.372069,-34.094766],[135.989043,-34.890118],[135.208213,-34.47867],[135.239218,-33.947953],[134.613417,-33.222778],[134.085904,-32.848072],[134.273903,-32.617234],[132.990777,-32.011224],[132.288081,-31.982647],[131.326331,-31.495803],[129.535794,-31.590423],[128.240938,-31.948489],[127.102867,-32.282267],[126.148714,-32.215966],[125.088623,-32.728751],[124.221648,-32.959487],[124.028947,-33.483847],[123.659667,-33.890179],[122.811036,-33.914467],[122.183064,-34.003402],[121.299191,-33.821036],[120.580268,-33.930177],[119.893695,-33.976065],[119.298899,-34.509366],[119.007341,-34.464149],[118.505718,-34.746819],[118.024972,-35.064733],[117.295507,-35.025459],[116.625109,-35.025097],[115.564347,-34.386428],[115.026809,-34.196517],[115.048616,-33.623425],[115.545123,-33.487258],[115.714674,-33.259572],[115.679379,-32.900369],[115.801645,-32.205062],[115.689611,-31.612437],[115.160909,-30.601594],[114.997043,-30.030725],[115.040038,-29.461095],[114.641974,-28.810231],[114.616498,-28.516399],[114.173579,-28.118077],[114.048884,-27.334765],[113.477498,-26.543134],[113.338953,-26.116545],[113.778358,-26.549025],[113.440962,-25.621278],[113.936901,-25.911235],[114.232852,-26.298446],[114.216161,-25.786281],[113.721255,-24.998939],[113.625344,-24.683971],[113.393523,-24.384764],[113.502044,-23.80635],[113.706993,-23.560215],[113.843418,-23.059987],[113.736552,-22.475475],[114.149756,-21.755881],[114.225307,-22.517488],[114.647762,-21.82952],[115.460167,-21.495173],[115.947373,-21.068688],[116.711615,-20.701682],[117.166316,-20.623599],[117.441545,-20.746899],[118.229559,-20.374208],[118.836085,-20.263311],[118.987807,-20.044203],[119.252494,-19.952942],[119.805225,-19.976506],[120.85622,-19.683708],[121.399856,-19.239756],[121.655138,-18.705318],[122.241665,-18.197649],[122.286624,-17.798603],[122.312772,-17.254967],[123.012574,-16.4052],[123.433789,-17.268558],[123.859345,-17.069035],[123.503242,-16.596506],[123.817073,-16.111316],[124.258287,-16.327944],[124.379726,-15.56706],[124.926153,-15.0751],[125.167275,-14.680396],[125.670087,-14.51007],[125.685796,-14.230656],[126.125149,-14.347341],[126.142823,-14.095987],[126.582589,-13.952791],[127.065867,-13.817968],[127.804633,-14.276906],[128.35969,-14.86917],[128.985543,-14.875991],[129.621473,-14.969784],[129.4096,-14.42067],[129.888641,-13.618703],[130.339466,-13.357376],[130.183506,-13.10752],[130.617795,-12.536392],[131.223495,-12.183649],[131.735091,-12.302453],[132.575298,-12.114041],[132.557212,-11.603012],[131.824698,-11.273782],[132.357224,-11.128519],[133.019561,-11.376411],[133.550846,-11.786515],[134.393068,-12.042365],[134.678632,-11.941183],[135.298491,-12.248606],[135.882693,-11.962267],[136.258381,-12.049342],[136.492475,-11.857209],[136.95162,-12.351959],[136.685125,-12.887223],[136.305407,-13.29123],[135.961758,-13.324509],[136.077617,-13.724278],[135.783836,-14.223989],[135.428664,-14.715432],[135.500184,-14.997741],[136.295175,-15.550265],[137.06536,-15.870762],[137.580471,-16.215082],[138.303217,-16.807604],[138.585164,-16.806622],[139.108543,-17.062679],[139.260575,-17.371601],[140.215245,-17.710805],[140.875463,-17.369069],[141.07111,-16.832047],[141.274095,-16.38887],[141.398222,-15.840532],[141.702183,-15.044921],[141.56338,-14.561333],[141.63552,-14.270395],[141.519869,-13.698078],[141.65092,-12.944688],[141.842691,-12.741548],[141.68699,-12.407614],[141.928629,-11.877466],[142.118488,-11.328042],[142.143706,-11.042737],[142.51526,-10.668186],[142.79731,-11.157355],[142.866763,-11.784707],[143.115947,-11.90563],[143.158632,-12.325656],[143.522124,-12.834358],[143.597158,-13.400422],[143.561811,-13.763656]]]]},"id":"AUS"},{"type":"Feature","properties":{"name":"Azerbaijan"},"geometry":{"type":"MultiPolygon","coordinates":[[[[45.001987,39.740004],[45.298145,39.471751],[45.739978,39.473999],[45.735379,39.319719],[46.143623,38.741201],[45.457722,38.874139],[44.952688,39.335765],[44.79399,39.713003],[45.001987,39.740004]]],[[[47.373315,41.219732],[47.815666,41.151416],[47.987283,41.405819],[48.584353,41.80887],[49.110264,41.282287],[49.618915,40.572924],[50.08483,40.526157],[50.392821,40.256561],[49.569202,40.176101],[49.395259,39.399482],[49.223228,39.049219],[48.856532,38.815486],[48.883249,38.320245],[48.634375,38.270378],[48.010744,38.794015],[48.355529,39.288765],[48.060095,39.582235],[47.685079,39.508364],[46.50572,38.770605],[46.483499,39.464155],[46.034534,39.628021],[45.610012,39.899994],[45.891907,40.218476],[45.359175,40.561504],[45.560351,40.81229],[45.179496,40.985354],[44.97248,41.248129],[45.217426,41.411452],[45.962601,41.123873],[46.501637,41.064445],[46.637908,41.181673],[46.145432,41.722802],[46.404951,41.860675],[46.686071,41.827137],[47.373315,41.219732]]]]},"id":"AZE"},{"type":"Feature","properties":{"name":"Burundi"},"geometry":{"type":"Polygon","coordinates":[[[29.339998,-4.499983],[29.276384,-3.293907],[29.024926,-2.839258],[29.632176,-2.917858],[29.938359,-2.348487],[30.469696,-2.413858],[30.527677,-2.807632],[30.743013,-3.034285],[30.752263,-3.35933],[30.50556,-3.568567],[30.116333,-4.090138],[29.753512,-4.452389],[29.339998,-4.499983]]]},"id":"BDI"},{"type":"Feature","properties":{"name":"Bangladesh"},"geometry":{"type":"Polygon","coordinates":[[[92.672721,22.041239],[92.652257,21.324048],[92.303234,21.475485],[92.368554,20.670883],[92.082886,21.192195],[92.025215,21.70157],[91.834891,22.182936],[91.417087,22.765019],[90.496006,22.805017],[90.586957,22.392794],[90.272971,21.836368],[89.847467,22.039146],[89.70205,21.857116],[89.418863,21.966179],[89.031961,22.055708],[88.876312,22.879146],[88.52977,23.631142],[88.69994,24.233715],[88.084422,24.501657],[88.306373,24.866079],[88.931554,25.238692],[88.209789,25.768066],[88.563049,26.446526],[89.355094,26.014407],[89.832481,25.965082],[89.920693,25.26975],[90.872211,25.132601],[91.799596,25.147432],[92.376202,24.976693],[91.915093,24.130414],[91.46773,24.072639],[91.158963,23.503527],[91.706475,22.985264],[91.869928,23.624346],[92.146035,23.627499],[92.672721,22.041239]]]},"id":"BGD"},{"type":"Feature","properties":{"name":"Brunei"},"geometry":{"type":"Polygon","coordinates":[[[114.204017,4.525874],[114.599961,4.900011],[115.45071,5.44773],[115.4057,4.955228],[115.347461,4.316636],[114.869557,4.348314],[114.659596,4.007637],[114.204017,4.525874]]]},"id":"BRN"},{"type":"Feature","properties":{"name":"Bhutan"},"geometry":{"type":"Polygon","coordinates":[[[91.696657,27.771742],[92.103712,27.452614],[92.033484,26.83831],[91.217513,26.808648],[90.373275,26.875724],[89.744528,26.719403],[88.835643,27.098966],[88.814248,27.299316],[89.47581,28.042759],[90.015829,28.296439],[90.730514,28.064954],[91.258854,28.040614],[91.696657,27.771742]]]},"id":"BTN"},{"type":"Feature","properties":{"name":"Botswana"},"geometry":{"type":"Polygon","coordinates":[[[25.649163,-18.536026],[25.850391,-18.714413],[26.164791,-19.293086],[27.296505,-20.39152],[27.724747,-20.499059],[27.727228,-20.851802],[28.02137,-21.485975],[28.794656,-21.639454],[29.432188,-22.091313],[28.017236,-22.827754],[27.11941,-23.574323],[26.786407,-24.240691],[26.485753,-24.616327],[25.941652,-24.696373],[25.765849,-25.174845],[25.664666,-25.486816],[25.025171,-25.71967],[24.211267,-25.670216],[23.73357,-25.390129],[23.312097,-25.26869],[22.824271,-25.500459],[22.579532,-25.979448],[22.105969,-26.280256],[21.605896,-26.726534],[20.889609,-26.828543],[20.66647,-26.477453],[20.758609,-25.868136],[20.165726,-24.917962],[19.895768,-24.76779],[19.895458,-21.849157],[20.881134,-21.814327],[20.910641,-18.252219],[21.65504,-18.219146],[23.196858,-17.869038],[23.579006,-18.281261],[24.217365,-17.889347],[24.520705,-17.887125],[25.084443,-17.661816],[25.264226,-17.73654],[25.649163,-18.536026]]]},"id":"BWA"},{"type":"Feature","properties":{"name":"Central African Republic"},"geometry":{"type":"Polygon","coordinates":[[[15.27946,7.421925],[16.106232,7.497088],[16.290562,7.754307],[16.456185,7.734774],[16.705988,7.508328],[17.96493,7.890914],[18.389555,8.281304],[18.911022,8.630895],[18.81201,8.982915],[19.094008,9.074847],[20.059685,9.012706],[21.000868,9.475985],[21.723822,10.567056],[22.231129,10.971889],[22.864165,11.142395],[22.977544,10.714463],[23.554304,10.089255],[23.55725,9.681218],[23.394779,9.265068],[23.459013,8.954286],[23.805813,8.666319],[24.567369,8.229188],[25.114932,7.825104],[25.124131,7.500085],[25.796648,6.979316],[26.213418,6.546603],[26.465909,5.946717],[27.213409,5.550953],[27.374226,5.233944],[27.044065,5.127853],[26.402761,5.150875],[25.650455,5.256088],[25.278798,5.170408],[25.128833,4.927245],[24.805029,4.897247],[24.410531,5.108784],[23.297214,4.609693],[22.84148,4.710126],[22.704124,4.633051],[22.405124,4.02916],[21.659123,4.224342],[20.927591,4.322786],[20.290679,4.691678],[19.467784,5.031528],[18.932312,4.709506],[18.542982,4.201785],[18.453065,3.504386],[17.8099,3.560196],[17.133042,3.728197],[16.537058,3.198255],[16.012852,2.26764],[15.907381,2.557389],[15.862732,3.013537],[15.405396,3.335301],[15.03622,3.851367],[14.950953,4.210389],[14.478372,4.732605],[14.558936,5.030598],[14.459407,5.451761],[14.53656,6.226959],[14.776545,6.408498],[15.27946,7.421925]]]},"id":"CAF"},{"type":"Feature","properties":{"name":"China"},"geometry":{"type":"MultiPolygon","coordinates":[[[[110.339188,18.678395],[109.47521,18.197701],[108.655208,18.507682],[108.626217,19.367888],[109.119056,19.821039],[110.211599,20.101254],[110.786551,20.077534],[111.010051,19.69593],[110.570647,19.255879],[110.339188,18.678395]]],[[[127.657407,49.76027],[129.397818,49.4406],[130.582293,48.729687],[130.987282,47.790132],[132.506672,47.78897],[133.373596,48.183442],[135.026311,48.47823],[134.500814,47.57844],[134.112362,47.212467],[133.769644,46.116927],[133.097127,45.144066],[131.883454,45.321162],[131.025212,44.967953],[131.288555,44.11152],[131.144688,42.92999],[130.633866,42.903015],[130.640016,42.395009],[129.994267,42.985387],[129.596669,42.424982],[128.052215,41.994285],[128.208433,41.466772],[127.343783,41.503152],[126.869083,41.816569],[126.182045,41.107336],[125.079942,40.569824],[124.265625,39.928493],[122.86757,39.637788],[122.131388,39.170452],[121.054554,38.897471],[121.585995,39.360854],[121.376757,39.750261],[122.168595,40.422443],[121.640359,40.94639],[120.768629,40.593388],[119.639602,39.898056],[119.023464,39.252333],[118.042749,39.204274],[117.532702,38.737636],[118.059699,38.061476],[118.87815,37.897325],[118.911636,37.448464],[119.702802,37.156389],[120.823457,37.870428],[121.711259,37.481123],[122.357937,37.454484],[122.519995,36.930614],[121.104164,36.651329],[120.637009,36.11144],[119.664562,35.609791],[119.151208,34.909859],[120.227525,34.360332],[120.620369,33.376723],[121.229014,32.460319],[121.908146,31.692174],[121.891919,30.949352],[121.264257,30.676267],[121.503519,30.142915],[122.092114,29.83252],[121.938428,29.018022],[121.684439,28.225513],[121.125661,28.135673],[120.395473,27.053207],[119.585497,25.740781],[118.656871,24.547391],[117.281606,23.624501],[115.890735,22.782873],[114.763827,22.668074],[114.152547,22.22376],[113.80678,22.54834],[113.241078,22.051367],[111.843592,21.550494],[110.785466,21.397144],[110.444039,20.341033],[109.889861,20.282457],[109.627655,21.008227],[109.864488,21.395051],[108.522813,21.715212],[108.05018,21.55238],[107.04342,21.811899],[106.567273,22.218205],[106.725403,22.794268],[105.811247,22.976892],[105.329209,23.352063],[104.476858,22.81915],[103.504515,22.703757],[102.706992,22.708795],[102.170436,22.464753],[101.652018,22.318199],[101.80312,21.174367],[101.270026,21.201652],[101.180005,21.436573],[101.150033,21.849984],[100.416538,21.558839],[99.983489,21.742937],[99.240899,22.118314],[99.531992,22.949039],[98.898749,23.142722],[98.660262,24.063286],[97.60472,23.897405],[97.724609,25.083637],[98.671838,25.918703],[98.712094,26.743536],[98.68269,27.508812],[98.246231,27.747221],[97.911988,28.335945],[97.327114,28.261583],[96.248833,28.411031],[96.586591,28.83098],[96.117679,29.452802],[95.404802,29.031717],[94.56599,29.277438],[93.413348,28.640629],[92.503119,27.896876],[91.696657,27.771742],[91.258854,28.040614],[90.730514,28.064954],[90.015829,28.296439],[89.47581,28.042759],[88.814248,27.299316],[88.730326,28.086865],[88.120441,27.876542],[86.954517,27.974262],[85.82332,28.203576],[85.011638,28.642774],[84.23458,28.839894],[83.898993,29.320226],[83.337115,29.463732],[82.327513,30.115268],[81.525804,30.422717],[81.111256,30.183481],[79.721367,30.882715],[78.738894,31.515906],[78.458446,32.618164],[79.176129,32.48378],[79.208892,32.994395],[78.811086,33.506198],[78.912269,34.321936],[77.837451,35.49401],[76.192848,35.898403],[75.896897,36.666806],[75.158028,37.133031],[74.980002,37.41999],[74.829986,37.990007],[74.864816,38.378846],[74.257514,38.606507],[73.928852,38.505815],[73.675379,39.431237],[73.960013,39.660008],[73.822244,39.893973],[74.776862,40.366425],[75.467828,40.562072],[76.526368,40.427946],[76.904484,41.066486],[78.187197,41.185316],[78.543661,41.582243],[80.11943,42.123941],[80.25999,42.349999],[80.18015,42.920068],[80.866206,43.180362],[79.966106,44.917517],[81.947071,45.317027],[82.458926,45.53965],[83.180484,47.330031],[85.16429,47.000956],[85.720484,47.452969],[85.768233,48.455751],[86.598776,48.549182],[87.35997,49.214981],[87.751264,49.297198],[88.013832,48.599463],[88.854298,48.069082],[90.280826,47.693549],[90.970809,46.888146],[90.585768,45.719716],[90.94554,45.286073],[92.133891,45.115076],[93.480734,44.975472],[94.688929,44.352332],[95.306875,44.241331],[95.762455,43.319449],[96.349396,42.725635],[97.451757,42.74889],[99.515817,42.524691],[100.845866,42.663804],[101.83304,42.514873],[103.312278,41.907468],[104.522282,41.908347],[104.964994,41.59741],[106.129316,42.134328],[107.744773,42.481516],[109.243596,42.519446],[110.412103,42.871234],[111.129682,43.406834],[111.829588,43.743118],[111.667737,44.073176],[111.348377,44.457442],[111.873306,45.102079],[112.436062,45.011646],[113.463907,44.808893],[114.460332,45.339817],[115.985096,45.727235],[116.717868,46.388202],[117.421701,46.672733],[118.874326,46.805412],[119.66327,46.69268],[119.772824,47.048059],[118.866574,47.74706],[118.064143,48.06673],[117.295507,47.697709],[116.308953,47.85341],[115.742837,47.726545],[115.485282,48.135383],[116.191802,49.134598],[116.678801,49.888531],[117.879244,49.510983],[119.288461,50.142883],[119.279366,50.582908],[120.18205,51.643566],[120.738191,51.964115],[120.725789,52.516226],[120.177089,52.753886],[121.003085,53.251401],[122.245748,53.431726],[123.571507,53.458804],[125.068211,53.161045],[125.946349,52.792799],[126.564399,51.784255],[126.939157,51.353894],[127.287456,50.739797],[127.657407,49.76027]]]]},"id":"CHN"},{"type":"Feature","properties":{"name":"Democratic Republic of the Congo"},"geometry":{"type":"Polygon","coordinates":[[[30.83386,3.509166],[30.773347,2.339883],[31.174149,2.204465],[30.85267,1.849396],[30.468508,1.583805],[30.086154,1.062313],[29.875779,0.59738],[29.819503,-0.20531],[29.587838,-0.587406],[29.579466,-1.341313],[29.291887,-1.620056],[29.254835,-2.21511],[29.117479,-2.292211],[29.024926,-2.839258],[29.276384,-3.293907],[29.339998,-4.499983],[29.519987,-5.419979],[29.419993,-5.939999],[29.620032,-6.520015],[30.199997,-7.079981],[30.740015,-8.340007],[30.346086,-8.238257],[29.002912,-8.407032],[28.734867,-8.526559],[28.449871,-9.164918],[28.673682,-9.605925],[28.49607,-10.789884],[28.372253,-11.793647],[28.642417,-11.971569],[29.341548,-12.360744],[29.616001,-12.178895],[29.699614,-13.257227],[28.934286,-13.248958],[28.523562,-12.698604],[28.155109,-12.272481],[27.388799,-12.132747],[27.16442,-11.608748],[26.553088,-11.92444],[25.75231,-11.784965],[25.418118,-11.330936],[24.78317,-11.238694],[24.314516,-11.262826],[24.257155,-10.951993],[23.912215,-10.926826],[23.456791,-10.867863],[22.837345,-11.017622],[22.402798,-10.993075],[22.155268,-11.084801],[22.208753,-9.894796],[21.875182,-9.523708],[21.801801,-8.908707],[21.949131,-8.305901],[21.746456,-7.920085],[21.728111,-7.290872],[20.514748,-7.299606],[20.601823,-6.939318],[20.091622,-6.94309],[20.037723,-7.116361],[19.417502,-7.155429],[19.166613,-7.738184],[19.016752,-7.988246],[18.464176,-7.847014],[18.134222,-7.987678],[17.47297,-8.068551],[17.089996,-7.545689],[16.860191,-7.222298],[16.57318,-6.622645],[16.326528,-5.87747],[13.375597,-5.864241],[13.024869,-5.984389],[12.735171,-5.965682],[12.322432,-6.100092],[12.182337,-5.789931],[12.436688,-5.684304],[12.468004,-5.248362],[12.631612,-4.991271],[12.995517,-4.781103],[13.25824,-4.882957],[13.600235,-4.500138],[14.144956,-4.510009],[14.209035,-4.793092],[14.582604,-4.970239],[15.170992,-4.343507],[15.75354,-3.855165],[16.00629,-3.535133],[15.972803,-2.712392],[16.407092,-1.740927],[16.865307,-1.225816],[17.523716,-0.74383],[17.638645,-0.424832],[17.663553,-0.058084],[17.82654,0.288923],[17.774192,0.855659],[17.898835,1.741832],[18.094276,2.365722],[18.393792,2.900443],[18.453065,3.504386],[18.542982,4.201785],[18.932312,4.709506],[19.467784,5.031528],[20.290679,4.691678],[20.927591,4.322786],[21.659123,4.224342],[22.405124,4.02916],[22.704124,4.633051],[22.84148,4.710126],[23.297214,4.609693],[24.410531,5.108784],[24.805029,4.897247],[25.128833,4.927245],[25.278798,5.170408],[25.650455,5.256088],[26.402761,5.150875],[27.044065,5.127853],[27.374226,5.233944],[27.979977,4.408413],[28.428994,4.287155],[28.696678,4.455077],[29.159078,4.389267],[29.715995,4.600805],[29.9535,4.173699],[30.83386,3.509166]]]},"id":"COD"},{"type":"Feature","properties":{"name":"Northern Cyprus"},"geometry":{"type":"Polygon","coordinates":[[[32.73178,35.140026],[32.802474,35.145504],[32.946961,35.386703],[33.667227,35.373216],[34.576474,35.671596],[33.900804,35.245756],[33.973617,35.058506],[33.86644,35.093595],[33.675392,35.017863],[33.525685,35.038688],[33.475817,35.000345],[33.455922,35.101424],[33.383833,35.162712],[33.190977,35.173125],[32.919572,35.087833],[32.73178,35.140026]]]},"id":"-99"},{"type":"Feature","properties":{"name":"Cyprus"},"geometry":{"type":"Polygon","coordinates":[[[33.973617,35.058506],[34.004881,34.978098],[32.979827,34.571869],[32.490296,34.701655],[32.256667,35.103232],[32.73178,35.140026],[32.919572,35.087833],[33.190977,35.173125],[33.383833,35.162712],[33.455922,35.101424],[33.475817,35.000345],[33.525685,35.038688],[33.675392,35.017863],[33.86644,35.093595],[33.973617,35.058506]]]},"id":"CYP"},{"type":"Feature","properties":{"name":"Djibouti"},"geometry":{"type":"Polygon","coordinates":[[[43.081226,12.699639],[43.317852,12.390148],[43.286381,11.974928],[42.715874,11.735641],[43.145305,11.46204],[42.776852,10.926879],[42.55493,11.10511],[42.31414,11.0342],[41.75557,11.05091],[41.73959,11.35511],[41.66176,11.6312],[42,12.1],[42.35156,12.54223],[42.779642,12.455416],[43.081226,12.699639]]]},"id":"DJI"},{"type":"Feature","properties":{"name":"Egypt"},"geometry":{"type":"Polygon","coordinates":[[[34.9226,29.50133],[34.64174,29.09942],[34.42655,28.34399],[34.15451,27.8233],[33.92136,27.6487],[33.58811,27.97136],[33.13676,28.41765],[32.42323,29.85108],[32.32046,29.76043],[32.73482,28.70523],[33.34876,27.69989],[34.10455,26.14227],[34.47387,25.59856],[34.79507,25.03375],[35.69241,23.92671],[35.49372,23.75237],[35.52598,23.10244],[36.69069,22.20485],[36.86623,22],[32.9,22],[29.02,22],[25,22],[25,25.6825],[25,29.238655],[24.70007,30.04419],[24.95762,30.6616],[24.80287,31.08929],[25.16482,31.56915],[26.49533,31.58568],[27.45762,31.32126],[28.45048,31.02577],[28.91353,30.87005],[29.68342,31.18686],[30.09503,31.4734],[30.97693,31.55586],[31.68796,31.4296],[31.96041,30.9336],[32.19247,31.26034],[32.99392,31.02407],[33.7734,30.96746],[34.26544,31.21936],[34.9226,29.50133]]]},"id":"EGY"},{"type":"Feature","properties":{"name":"Eritrea"},"geometry":{"type":"Polygon","coordinates":[[[42.35156,12.54223],[42.00975,12.86582],[41.59856,13.45209],[41.155194,13.77332],[40.8966,14.11864],[40.026219,14.519579],[39.34061,14.53155],[39.0994,14.74064],[38.51295,14.50547],[37.90607,14.95943],[37.59377,14.2131],[36.42951,14.42211],[36.323189,14.822481],[36.75386,16.291874],[36.85253,16.95655],[37.16747,17.26314],[37.904,17.42754],[38.41009,17.998307],[38.990623,16.840626],[39.26611,15.922723],[39.814294,15.435647],[41.179275,14.49108],[41.734952,13.921037],[42.276831,13.343992],[42.589576,13.000421],[43.081226,12.699639],[42.779642,12.455416],[42.35156,12.54223]]]},"id":"ERI"},{"type":"Feature","properties":{"name":"Ethiopia"},"geometry":{"type":"Polygon","coordinates":[[[37.90607,14.95943],[38.51295,14.50547],[39.0994,14.74064],[39.34061,14.53155],[40.02625,14.51959],[40.8966,14.11864],[41.1552,13.77333],[41.59856,13.45209],[42.00975,12.86582],[42.35156,12.54223],[42,12.1],[41.66176,11.6312],[41.73959,11.35511],[41.75557,11.05091],[42.31414,11.0342],[42.55493,11.10511],[42.776852,10.926879],[42.55876,10.57258],[42.92812,10.02194],[43.29699,9.54048],[43.67875,9.18358],[46.94834,7.99688],[47.78942,8.003],[44.9636,5.00162],[43.66087,4.95755],[42.76967,4.25259],[42.12861,4.23413],[41.855083,3.918912],[41.1718,3.91909],[40.76848,4.25702],[39.85494,3.83879],[39.559384,3.42206],[38.89251,3.50074],[38.67114,3.61607],[38.43697,3.58851],[38.120915,3.598605],[36.855093,4.447864],[36.159079,4.447864],[35.817448,4.776966],[35.817448,5.338232],[35.298007,5.506],[34.70702,6.59422],[34.25032,6.82607],[34.0751,7.22595],[33.56829,7.71334],[32.95418,7.78497],[33.2948,8.35458],[33.8255,8.37916],[33.97498,8.68456],[33.96162,9.58358],[34.25745,10.63009],[34.73115,10.91017],[34.83163,11.31896],[35.26049,12.08286],[35.86363,12.57828],[36.27022,13.56333],[36.42951,14.42211],[37.59377,14.2131],[37.90607,14.95943]]]},"id":"ETH"},{"type":"Feature","properties":{"name":"Greece"},"geometry":{"type":"MultiPolygon","coordinates":[[[[23.69998,35.705004],[24.246665,35.368022],[25.025015,35.424996],[25.769208,35.354018],[25.745023,35.179998],[26.290003,35.29999],[26.164998,35.004995],[24.724982,34.919988],[24.735007,35.084991],[23.514978,35.279992],[23.69998,35.705004]]],[[[26.604196,41.562115],[26.294602,40.936261],[26.056942,40.824123],[25.447677,40.852545],[24.925848,40.947062],[23.714811,40.687129],[24.407999,40.124993],[23.899968,39.962006],[23.342999,39.960998],[22.813988,40.476005],[22.626299,40.256561],[22.849748,39.659311],[23.350027,39.190011],[22.973099,38.970903],[23.530016,38.510001],[24.025025,38.219993],[24.040011,37.655015],[23.115003,37.920011],[23.409972,37.409991],[22.774972,37.30501],[23.154225,36.422506],[22.490028,36.41],[21.670026,36.844986],[21.295011,37.644989],[21.120034,38.310323],[20.730032,38.769985],[20.217712,39.340235],[20.150016,39.624998],[20.615,40.110007],[20.674997,40.435],[20.99999,40.580004],[21.02004,40.842727],[21.674161,40.931275],[22.055378,41.149866],[22.597308,41.130487],[22.76177,41.3048],[22.952377,41.337994],[23.692074,41.309081],[24.492645,41.583896],[25.197201,41.234486],[26.106138,41.328899],[26.117042,41.826905],[26.604196,41.562115]]]]},"id":"GRC"},{"type":"Feature","properties":{"name":"Indonesia"},"geometry":{"type":"MultiPolygon","coordinates":[[[[120.715609,-10.239581],[120.295014,-10.25865],[118.967808,-9.557969],[119.90031,-9.36134],[120.425756,-9.665921],[120.775502,-9.969675],[120.715609,-10.239581]]],[[[124.43595,-10.140001],[123.579982,-10.359987],[123.459989,-10.239995],[123.550009,-9.900016],[123.980009,-9.290027],[124.968682,-8.89279],[125.07002,-9.089987],[125.08852,-9.393173],[124.43595,-10.140001]]],[[[117.900018,-8.095681],[118.260616,-8.362383],[118.87846,-8.280683],[119.126507,-8.705825],[117.970402,-8.906639],[117.277731,-9.040895],[116.740141,-9.032937],[117.083737,-8.457158],[117.632024,-8.449303],[117.900018,-8.095681]]],[[[122.903537,-8.094234],[122.756983,-8.649808],[121.254491,-8.933666],[119.924391,-8.810418],[119.920929,-8.444859],[120.715092,-8.236965],[121.341669,-8.53674],[122.007365,-8.46062],[122.903537,-8.094234]]],[[[108.623479,-6.777674],[110.539227,-6.877358],[110.759576,-6.465186],[112.614811,-6.946036],[112.978768,-7.594213],[114.478935,-7.776528],[115.705527,-8.370807],[114.564511,-8.751817],[113.464734,-8.348947],[112.559672,-8.376181],[111.522061,-8.302129],[110.58615,-8.122605],[109.427667,-7.740664],[108.693655,-7.6416],[108.277763,-7.766657],[106.454102,-7.3549],[106.280624,-6.9249],[105.365486,-6.851416],[106.051646,-5.895919],[107.265009,-5.954985],[108.072091,-6.345762],[108.486846,-6.421985],[108.623479,-6.777674]]],[[[134.724624,-6.214401],[134.210134,-6.895238],[134.112776,-6.142467],[134.290336,-5.783058],[134.499625,-5.445042],[134.727002,-5.737582],[134.724624,-6.214401]]],[[[127.249215,-3.459065],[126.874923,-3.790983],[126.183802,-3.607376],[125.989034,-3.177273],[127.000651,-3.129318],[127.249215,-3.459065]]],[[[130.471344,-3.093764],[130.834836,-3.858472],[129.990547,-3.446301],[129.155249,-3.362637],[128.590684,-3.428679],[127.898891,-3.393436],[128.135879,-2.84365],[129.370998,-2.802154],[130.471344,-3.093764]]],[[[134.143368,-1.151867],[134.422627,-2.769185],[135.457603,-3.367753],[136.293314,-2.307042],[137.440738,-1.703513],[138.329727,-1.702686],[139.184921,-2.051296],[139.926684,-2.409052],[141.00021,-2.600151],[141.017057,-5.859022],[141.033852,-9.117893],[140.143415,-8.297168],[139.127767,-8.096043],[138.881477,-8.380935],[137.614474,-8.411683],[138.039099,-7.597882],[138.668621,-7.320225],[138.407914,-6.232849],[137.92784,-5.393366],[135.98925,-4.546544],[135.164598,-4.462931],[133.66288,-3.538853],[133.367705,-4.024819],[132.983956,-4.112979],[132.756941,-3.746283],[132.753789,-3.311787],[131.989804,-2.820551],[133.066845,-2.460418],[133.780031,-2.479848],[133.696212,-2.214542],[132.232373,-2.212526],[131.836222,-1.617162],[130.94284,-1.432522],[130.519558,-0.93772],[131.867538,-0.695461],[132.380116,-0.369538],[133.985548,-0.78021],[134.143368,-1.151867]]],[[[125.240501,1.419836],[124.437035,0.427881],[123.685505,0.235593],[122.723083,0.431137],[121.056725,0.381217],[120.183083,0.237247],[120.04087,-0.519658],[120.935905,-1.408906],[121.475821,-0.955962],[123.340565,-0.615673],[123.258399,-1.076213],[122.822715,-0.930951],[122.38853,-1.516858],[121.508274,-1.904483],[122.454572,-3.186058],[122.271896,-3.5295],[123.170963,-4.683693],[123.162333,-5.340604],[122.628515,-5.634591],[122.236394,-5.282933],[122.719569,-4.464172],[121.738234,-4.851331],[121.489463,-4.574553],[121.619171,-4.188478],[120.898182,-3.602105],[120.972389,-2.627643],[120.305453,-2.931604],[120.390047,-4.097579],[120.430717,-5.528241],[119.796543,-5.6734],[119.366906,-5.379878],[119.653606,-4.459417],[119.498835,-3.494412],[119.078344,-3.487022],[118.767769,-2.801999],[119.180974,-2.147104],[119.323394,-1.353147],[119.825999,0.154254],[120.035702,0.566477],[120.885779,1.309223],[121.666817,1.013944],[122.927567,0.875192],[124.077522,0.917102],[125.065989,1.643259],[125.240501,1.419836]]],[[[128.688249,1.132386],[128.635952,0.258486],[128.12017,0.356413],[127.968034,-0.252077],[128.379999,-0.780004],[128.100016,-0.899996],[127.696475,-0.266598],[127.39949,1.011722],[127.600512,1.810691],[127.932378,2.174596],[128.004156,1.628531],[128.594559,1.540811],[128.688249,1.132386]]],[[[117.875627,1.827641],[118.996747,0.902219],[117.811858,0.784242],[117.478339,0.102475],[117.521644,-0.803723],[116.560048,-1.487661],[116.533797,-2.483517],[116.148084,-4.012726],[116.000858,-3.657037],[114.864803,-4.106984],[114.468652,-3.495704],[113.755672,-3.43917],[113.256994,-3.118776],[112.068126,-3.478392],[111.703291,-2.994442],[111.04824,-3.049426],[110.223846,-2.934032],[110.070936,-1.592874],[109.571948,-1.314907],[109.091874,-0.459507],[108.952658,0.415375],[109.069136,1.341934],[109.66326,2.006467],[109.830227,1.338136],[110.514061,0.773131],[111.159138,0.976478],[111.797548,0.904441],[112.380252,1.410121],[112.859809,1.49779],[113.80585,1.217549],[114.621355,1.430688],[115.134037,2.821482],[115.519078,3.169238],[115.865517,4.306559],[117.015214,4.306094],[117.882035,4.137551],[117.313232,3.234428],[118.04833,2.28769],[117.875627,1.827641]]],[[[105.817655,-5.852356],[104.710384,-5.873285],[103.868213,-5.037315],[102.584261,-4.220259],[102.156173,-3.614146],[101.399113,-2.799777],[100.902503,-2.050262],[100.141981,-0.650348],[99.26374,0.183142],[98.970011,1.042882],[98.601351,1.823507],[97.699598,2.453184],[97.176942,3.308791],[96.424017,3.86886],[95.380876,4.970782],[95.293026,5.479821],[95.936863,5.439513],[97.484882,5.246321],[98.369169,4.26837],[99.142559,3.59035],[99.693998,3.174329],[100.641434,2.099381],[101.658012,2.083697],[102.498271,1.3987],[103.07684,0.561361],[103.838396,0.104542],[103.437645,-0.711946],[104.010789,-1.059212],[104.369991,-1.084843],[104.53949,-1.782372],[104.887893,-2.340425],[105.622111,-2.428844],[106.108593,-3.061777],[105.857446,-4.305525],[105.817655,-5.852356]]]]},"id":"IDN"},{"type":"Feature","properties":{"name":"India"},"geometry":{"type":"Polygon","coordinates":[[[77.837451,35.49401],[78.912269,34.321936],[78.811086,33.506198],[79.208892,32.994395],[79.176129,32.48378],[78.458446,32.618164],[78.738894,31.515906],[79.721367,30.882715],[81.111256,30.183481],[80.476721,29.729865],[80.088425,28.79447],[81.057203,28.416095],[81.999987,27.925479],[83.304249,27.364506],[84.675018,27.234901],[85.251779,26.726198],[86.024393,26.630985],[87.227472,26.397898],[88.060238,26.414615],[88.174804,26.810405],[88.043133,27.445819],[88.120441,27.876542],[88.730326,28.086865],[88.814248,27.299316],[88.835643,27.098966],[89.744528,26.719403],[90.373275,26.875724],[91.217513,26.808648],[92.033484,26.83831],[92.103712,27.452614],[91.696657,27.771742],[92.503119,27.896876],[93.413348,28.640629],[94.56599,29.277438],[95.404802,29.031717],[96.117679,29.452802],[96.586591,28.83098],[96.248833,28.411031],[97.327114,28.261583],[97.402561,27.882536],[97.051989,27.699059],[97.133999,27.083774],[96.419366,27.264589],[95.124768,26.573572],[95.155153,26.001307],[94.603249,25.162495],[94.552658,24.675238],[94.106742,23.850741],[93.325188,24.078556],[93.286327,23.043658],[93.060294,22.703111],[93.166128,22.27846],[92.672721,22.041239],[92.146035,23.627499],[91.869928,23.624346],[91.706475,22.985264],[91.158963,23.503527],[91.46773,24.072639],[91.915093,24.130414],[92.376202,24.976693],[91.799596,25.147432],[90.872211,25.132601],[89.920693,25.26975],[89.832481,25.965082],[89.355094,26.014407],[88.563049,26.446526],[88.209789,25.768066],[88.931554,25.238692],[88.306373,24.866079],[88.084422,24.501657],[88.69994,24.233715],[88.52977,23.631142],[88.876312,22.879146],[89.031961,22.055708],[88.888766,21.690588],[88.208497,21.703172],[86.975704,21.495562],[87.033169,20.743308],[86.499351,20.151638],[85.060266,19.478579],[83.941006,18.30201],[83.189217,17.671221],[82.192792,17.016636],[82.191242,16.556664],[81.692719,16.310219],[80.791999,15.951972],[80.324896,15.899185],[80.025069,15.136415],[80.233274,13.835771],[80.286294,13.006261],[79.862547,12.056215],[79.857999,10.357275],[79.340512,10.308854],[78.885345,9.546136],[79.18972,9.216544],[78.277941,8.933047],[77.941165,8.252959],[77.539898,7.965535],[76.592979,8.899276],[76.130061,10.29963],[75.746467,11.308251],[75.396101,11.781245],[74.864816,12.741936],[74.616717,13.992583],[74.443859,14.617222],[73.534199,15.990652],[73.119909,17.92857],[72.820909,19.208234],[72.824475,20.419503],[72.630533,21.356009],[71.175273,20.757441],[70.470459,20.877331],[69.16413,22.089298],[69.644928,22.450775],[69.349597,22.84318],[68.176645,23.691965],[68.842599,24.359134],[71.04324,24.356524],[70.844699,25.215102],[70.282873,25.722229],[70.168927,26.491872],[69.514393,26.940966],[70.616496,27.989196],[71.777666,27.91318],[72.823752,28.961592],[73.450638,29.976413],[74.42138,30.979815],[74.405929,31.692639],[75.258642,32.271105],[74.451559,32.7649],[74.104294,33.441473],[73.749948,34.317699],[74.240203,34.748887],[75.757061,34.504923],[76.871722,34.653544],[77.837451,35.49401]]]},"id":"IND"},{"type":"Feature","properties":{"name":"Iran"},"geometry":{"type":"Polygon","coordinates":[[[53.921598,37.198918],[54.800304,37.392421],[55.511578,37.964117],[56.180375,37.935127],[56.619366,38.121394],[57.330434,38.029229],[58.436154,37.522309],[59.234762,37.412988],[60.377638,36.527383],[61.123071,36.491597],[61.210817,35.650072],[60.803193,34.404102],[60.52843,33.676446],[60.9637,33.528832],[60.536078,32.981269],[60.863655,32.18292],[60.941945,31.548075],[61.699314,31.379506],[61.781222,30.73585],[60.874248,29.829239],[61.369309,29.303276],[61.771868,28.699334],[62.72783,28.259645],[62.755426,27.378923],[63.233898,27.217047],[63.316632,26.756532],[61.874187,26.239975],[61.497363,25.078237],[59.616134,25.380157],[58.525761,25.609962],[57.397251,25.739902],[56.970766,26.966106],[56.492139,27.143305],[55.72371,26.964633],[54.71509,26.480658],[53.493097,26.812369],[52.483598,27.580849],[51.520763,27.86569],[50.852948,28.814521],[50.115009,30.147773],[49.57685,29.985715],[48.941333,30.31709],[48.567971,29.926778],[48.014568,30.452457],[48.004698,30.985137],[47.685286,30.984853],[47.849204,31.709176],[47.334661,32.469155],[46.109362,33.017287],[45.416691,33.967798],[45.64846,34.748138],[46.151788,35.093259],[46.07634,35.677383],[45.420618,35.977546],[44.77267,37.17045],[44.225756,37.971584],[44.421403,38.281281],[44.109225,39.428136],[44.79399,39.713003],[44.952688,39.335765],[45.457722,38.874139],[46.143623,38.741201],[46.50572,38.770605],[47.685079,39.508364],[48.060095,39.582235],[48.355529,39.288765],[48.010744,38.794015],[48.634375,38.270378],[48.883249,38.320245],[49.199612,37.582874],[50.147771,37.374567],[50.842354,36.872814],[52.264025,36.700422],[53.82579,36.965031],[53.921598,37.198918]]]},"id":"IRN"},{"type":"Feature","properties":{"name":"Iraq"},"geometry":{"type":"Polygon","coordinates":[[[45.420618,35.977546],[46.07634,35.677383],[46.151788,35.093259],[45.64846,34.748138],[45.416691,33.967798],[46.109362,33.017287],[47.334661,32.469155],[47.849204,31.709176],[47.685286,30.984853],[48.004698,30.985137],[48.014568,30.452457],[48.567971,29.926778],[47.974519,29.975819],[47.302622,30.05907],[46.568713,29.099025],[44.709499,29.178891],[41.889981,31.190009],[40.399994,31.889992],[39.195468,32.161009],[38.792341,33.378686],[41.006159,34.419372],[41.383965,35.628317],[41.289707,36.358815],[41.837064,36.605854],[42.349591,37.229873],[42.779126,37.385264],[43.942259,37.256228],[44.293452,37.001514],[44.772699,37.170445],[45.420618,35.977546]]]},"id":"IRQ"},{"type":"Feature","properties":{"name":"Israel"},"geometry":{"type":"Polygon","coordinates":[[[35.719918,32.709192],[35.545665,32.393992],[35.18393,32.532511],[34.974641,31.866582],[35.225892,31.754341],[34.970507,31.616778],[34.927408,31.353435],[35.397561,31.489086],[35.420918,31.100066],[34.922603,29.501326],[34.265433,31.219361],[34.556372,31.548824],[34.488107,31.605539],[34.752587,32.072926],[34.955417,32.827376],[35.098457,33.080539],[35.126053,33.0909],[35.460709,33.08904],[35.552797,33.264275],[35.821101,33.277426],[35.836397,32.868123],[35.700798,32.716014],[35.719918,32.709192]]]},"id":"ISR"},{"type":"Feature","properties":{"name":"Jordan"},"geometry":{"type":"Polygon","coordinates":[[[35.545665,32.393992],[35.719918,32.709192],[36.834062,32.312938],[38.792341,33.378686],[39.195468,32.161009],[39.004886,32.010217],[37.002166,31.508413],[37.998849,30.5085],[37.66812,30.338665],[37.503582,30.003776],[36.740528,29.865283],[36.501214,29.505254],[36.068941,29.197495],[34.956037,29.356555],[34.922603,29.501326],[35.420918,31.100066],[35.397561,31.489086],[35.545252,31.782505],[35.545665,32.393992]]]},"id":"JOR"},{"type":"Feature","properties":{"name":"Japan"},"geometry":{"type":"MultiPolygon","coordinates":[[[[134.638428,34.149234],[134.766379,33.806335],[134.203416,33.201178],[133.79295,33.521985],[133.280268,33.28957],[133.014858,32.704567],[132.363115,32.989382],[132.371176,33.463642],[132.924373,34.060299],[133.492968,33.944621],[133.904106,34.364931],[134.638428,34.149234]]],[[[140.976388,37.142074],[140.59977,36.343983],[140.774074,35.842877],[140.253279,35.138114],[138.975528,34.6676],[137.217599,34.606286],[135.792983,33.464805],[135.120983,33.849071],[135.079435,34.596545],[133.340316,34.375938],[132.156771,33.904933],[130.986145,33.885761],[132.000036,33.149992],[131.33279,31.450355],[130.686318,31.029579],[130.20242,31.418238],[130.447676,32.319475],[129.814692,32.61031],[129.408463,33.296056],[130.353935,33.604151],[130.878451,34.232743],[131.884229,34.749714],[132.617673,35.433393],[134.608301,35.731618],[135.677538,35.527134],[136.723831,37.304984],[137.390612,36.827391],[138.857602,37.827485],[139.426405,38.215962],[140.05479,39.438807],[139.883379,40.563312],[140.305783,41.195005],[141.368973,41.37856],[141.914263,39.991616],[141.884601,39.180865],[140.959489,38.174001],[140.976388,37.142074]]],[[[143.910162,44.1741],[144.613427,43.960883],[145.320825,44.384733],[145.543137,43.262088],[144.059662,42.988358],[143.18385,41.995215],[141.611491,42.678791],[141.067286,41.584594],[139.955106,41.569556],[139.817544,42.563759],[140.312087,43.333273],[141.380549,43.388825],[141.671952,44.772125],[141.967645,45.551483],[143.14287,44.510358],[143.910162,44.1741]]]]},"id":"JPN"},{"type":"Feature","properties":{"name":"Kenya"},"geometry":{"type":"Polygon","coordinates":[[[40.993,-0.85829],[41.58513,-1.68325],[40.88477,-2.08255],[40.63785,-2.49979],[40.26304,-2.57309],[40.12119,-3.27768],[39.80006,-3.68116],[39.60489,-4.34653],[39.20222,-4.67677],[37.7669,-3.67712],[37.69869,-3.09699],[34.07262,-1.05982],[33.903711,-0.95],[33.893569,0.109814],[34.18,0.515],[34.6721,1.17694],[35.03599,1.90584],[34.59607,3.05374],[34.47913,3.5556],[34.005,4.249885],[34.620196,4.847123],[35.298007,5.506],[35.817448,5.338232],[35.817448,4.776966],[36.159079,4.447864],[36.855093,4.447864],[38.120915,3.598605],[38.43697,3.58851],[38.67114,3.61607],[38.89251,3.50074],[39.559384,3.42206],[39.85494,3.83879],[40.76848,4.25702],[41.1718,3.91909],[41.855083,3.918912],[40.98105,2.78452],[40.993,-0.85829]]]},"id":"KEN"},{"type":"Feature","properties":{"name":"Kyrgyzstan"},"geometry":{"type":"Polygon","coordinates":[[[70.962315,42.266154],[71.186281,42.704293],[71.844638,42.845395],[73.489758,42.500894],[73.645304,43.091272],[74.212866,43.298339],[75.636965,42.8779],[76.000354,42.988022],[77.658392,42.960686],[79.142177,42.856092],[79.643645,42.496683],[80.25999,42.349999],[80.11943,42.123941],[78.543661,41.582243],[78.187197,41.185316],[76.904484,41.066486],[76.526368,40.427946],[75.467828,40.562072],[74.776862,40.366425],[73.822244,39.893973],[73.960013,39.660008],[73.675379,39.431237],[71.784694,39.279463],[70.549162,39.604198],[69.464887,39.526683],[69.55961,40.103211],[70.648019,39.935754],[71.014198,40.244366],[71.774875,40.145844],[73.055417,40.866033],[71.870115,41.3929],[71.157859,41.143587],[70.420022,41.519998],[71.259248,42.167711],[70.962315,42.266154]]]},"id":"KGZ"},{"type":"Feature","properties":{"name":"Cambodia"},"geometry":{"type":"Polygon","coordinates":[[[103.49728,10.632555],[103.09069,11.153661],[102.584932,12.186595],[102.348099,13.394247],[102.988422,14.225721],[104.281418,14.416743],[105.218777,14.273212],[106.043946,13.881091],[106.496373,14.570584],[107.382727,14.202441],[107.614548,13.535531],[107.491403,12.337206],[105.810524,11.567615],[106.24967,10.961812],[105.199915,10.88931],[104.334335,10.486544],[103.49728,10.632555]]]},"id":"KHM"},{"type":"Feature","properties":{"name":"South Korea"},"geometry":{"type":"Polygon","coordinates":[[[128.349716,38.612243],[129.21292,37.432392],[129.46045,36.784189],[129.468304,35.632141],[129.091377,35.082484],[128.18585,34.890377],[127.386519,34.475674],[126.485748,34.390046],[126.37392,34.93456],[126.559231,35.684541],[126.117398,36.725485],[126.860143,36.893924],[126.174759,37.749686],[126.237339,37.840378],[126.68372,37.804773],[127.073309,38.256115],[127.780035,38.304536],[128.205746,38.370397],[128.349716,38.612243]]]},"id":"KOR"},{"type":"Feature","properties":{"name":"Kuwait"},"geometry":{"type":"Polygon","coordinates":[[[47.974519,29.975819],[48.183189,29.534477],[48.093943,29.306299],[48.416094,28.552004],[47.708851,28.526063],[47.459822,29.002519],[46.568713,29.099025],[47.302622,30.05907],[47.974519,29.975819]]]},"id":"KWT"},{"type":"Feature","properties":{"name":"Laos"},"geometry":{"type":"Polygon","coordinates":[[[105.218777,14.273212],[105.544338,14.723934],[105.589039,15.570316],[104.779321,16.441865],[104.716947,17.428859],[103.956477,18.240954],[103.200192,18.309632],[102.998706,17.961695],[102.413005,17.932782],[102.113592,18.109102],[101.059548,17.512497],[101.035931,18.408928],[101.282015,19.462585],[100.606294,19.508344],[100.548881,20.109238],[100.115988,20.41785],[100.329101,20.786122],[101.180005,21.436573],[101.270026,21.201652],[101.80312,21.174367],[101.652018,22.318199],[102.170436,22.464753],[102.754896,21.675137],[103.203861,20.766562],[104.435,20.758733],[104.822574,19.886642],[104.183388,19.624668],[103.896532,19.265181],[105.094598,18.666975],[105.925762,17.485315],[106.556008,16.604284],[107.312706,15.908538],[107.564525,15.202173],[107.382727,14.202441],[106.496373,14.570584],[106.043946,13.881091],[105.218777,14.273212]]]},"id":"LAO"},{"type":"Feature","properties":{"name":"Lebanon"},"geometry":{"type":"Polygon","coordinates":[[[35.821101,33.277426],[35.552797,33.264275],[35.460709,33.08904],[35.126053,33.0909],[35.482207,33.90545],[35.979592,34.610058],[35.998403,34.644914],[36.448194,34.593935],[36.61175,34.201789],[36.06646,33.824912],[35.821101,33.277426]]]},"id":"LBN"},{"type":"Feature","properties":{"name":"Libya"},"geometry":{"type":"Polygon","coordinates":[[[14.8513,22.86295],[14.143871,22.491289],[13.581425,23.040506],[11.999506,23.471668],[11.560669,24.097909],[10.771364,24.562532],[10.303847,24.379313],[9.948261,24.936954],[9.910693,25.365455],[9.319411,26.094325],[9.716286,26.512206],[9.629056,27.140953],[9.756128,27.688259],[9.683885,28.144174],[9.859998,28.95999],[9.805634,29.424638],[9.48214,30.307556],[9.970017,30.539325],[10.056575,30.961831],[9.950225,31.37607],[10.636901,31.761421],[10.94479,32.081815],[11.432253,32.368903],[11.488787,33.136996],[12.66331,32.79278],[13.08326,32.87882],[13.91868,32.71196],[15.24563,32.26508],[15.71394,31.37626],[16.61162,31.18218],[18.02109,30.76357],[19.08641,30.26639],[19.57404,30.52582],[20.05335,30.98576],[19.82033,31.75179],[20.13397,32.2382],[20.85452,32.7068],[21.54298,32.8432],[22.89576,32.63858],[23.2368,32.19149],[23.60913,32.18726],[23.9275,32.01667],[24.92114,31.89936],[25.16482,31.56915],[24.80287,31.08929],[24.95762,30.6616],[24.70007,30.04419],[25,29.238655],[25,25.6825],[25,22],[25,20.00304],[23.85,20],[23.83766,19.58047],[19.84926,21.49509],[15.86085,23.40972],[14.8513,22.86295]]]},"id":"LBY"},{"type":"Feature","properties":{"name":"Sri Lanka"},"geometry":{"type":"Polygon","coordinates":[[[81.787959,7.523055],[81.637322,6.481775],[81.21802,6.197141],[80.348357,5.96837],[79.872469,6.763463],[79.695167,8.200843],[80.147801,9.824078],[80.838818,9.268427],[81.304319,8.564206],[81.787959,7.523055]]]},"id":"LKA"},{"type":"Feature","properties":{"name":"Lesotho"},"geometry":{"type":"Polygon","coordinates":[[[28.978263,-28.955597],[29.325166,-29.257387],[29.018415,-29.743766],[28.8484,-30.070051],[28.291069,-30.226217],[28.107205,-30.545732],[27.749397,-30.645106],[26.999262,-29.875954],[27.532511,-29.242711],[28.074338,-28.851469],[28.5417,-28.647502],[28.978263,-28.955597]]]},"id":"LSO"},{"type":"Feature","properties":{"name":"Madagascar"},"geometry":{"type":"Polygon","coordinates":[[[49.543519,-12.469833],[49.808981,-12.895285],[50.056511,-13.555761],[50.217431,-14.758789],[50.476537,-15.226512],[50.377111,-15.706069],[50.200275,-16.000263],[49.860606,-15.414253],[49.672607,-15.710204],[49.863344,-16.451037],[49.774564,-16.875042],[49.498612,-17.106036],[49.435619,-17.953064],[49.041792,-19.118781],[48.548541,-20.496888],[47.930749,-22.391501],[47.547723,-23.781959],[47.095761,-24.94163],[46.282478,-25.178463],[45.409508,-25.601434],[44.833574,-25.346101],[44.03972,-24.988345],[43.763768,-24.460677],[43.697778,-23.574116],[43.345654,-22.776904],[43.254187,-22.057413],[43.433298,-21.336475],[43.893683,-21.163307],[43.89637,-20.830459],[44.374325,-20.072366],[44.464397,-19.435454],[44.232422,-18.961995],[44.042976,-18.331387],[43.963084,-17.409945],[44.312469,-16.850496],[44.446517,-16.216219],[44.944937,-16.179374],[45.502732,-15.974373],[45.872994,-15.793454],[46.312243,-15.780018],[46.882183,-15.210182],[47.70513,-14.594303],[48.005215,-14.091233],[47.869047,-13.663869],[48.293828,-13.784068],[48.84506,-13.089175],[48.863509,-12.487868],[49.194651,-12.040557],[49.543519,-12.469833]]]},"id":"MDG"},{"type":"Feature","properties":{"name":"Myanmar"},"geometry":{"type":"Polygon","coordinates":[[[99.543309,20.186598],[98.959676,19.752981],[98.253724,19.708203],[97.797783,18.62708],[97.375896,18.445438],[97.859123,17.567946],[98.493761,16.837836],[98.903348,16.177824],[98.537376,15.308497],[98.192074,15.123703],[98.430819,14.622028],[99.097755,13.827503],[99.212012,13.269294],[99.196354,12.804748],[99.587286,11.892763],[99.038121,10.960546],[98.553551,9.93296],[98.457174,10.675266],[98.764546,11.441292],[98.428339,12.032987],[98.509574,13.122378],[98.103604,13.64046],[97.777732,14.837286],[97.597072,16.100568],[97.16454,16.928734],[96.505769,16.427241],[95.369352,15.71439],[94.808405,15.803454],[94.188804,16.037936],[94.533486,17.27724],[94.324817,18.213514],[93.540988,19.366493],[93.663255,19.726962],[93.078278,19.855145],[92.368554,20.670883],[92.303234,21.475485],[92.652257,21.324048],[92.672721,22.041239],[93.166128,22.27846],[93.060294,22.703111],[93.286327,23.043658],[93.325188,24.078556],[94.106742,23.850741],[94.552658,24.675238],[94.603249,25.162495],[95.155153,26.001307],[95.124768,26.573572],[96.419366,27.264589],[97.133999,27.083774],[97.051989,27.699059],[97.402561,27.882536],[97.327114,28.261583],[97.911988,28.335945],[98.246231,27.747221],[98.68269,27.508812],[98.712094,26.743536],[98.671838,25.918703],[97.724609,25.083637],[97.60472,23.897405],[98.660262,24.063286],[98.898749,23.142722],[99.531992,22.949039],[99.240899,22.118314],[99.983489,21.742937],[100.416538,21.558839],[101.150033,21.849984],[101.180005,21.436573],[100.329101,20.786122],[100.115988,20.41785],[99.543309,20.186598]]]},"id":"MMR"},{"type":"Feature","properties":{"name":"Mozambique"},"geometry":{"type":"Polygon","coordinates":[[[34.559989,-11.52002],[35.312398,-11.439146],[36.514082,-11.720938],[36.775151,-11.594537],[37.471284,-11.568751],[37.827645,-11.268769],[38.427557,-11.285202],[39.52103,-10.896854],[40.316589,-10.317096],[40.478387,-10.765441],[40.437253,-11.761711],[40.560811,-12.639177],[40.59962,-14.201975],[40.775475,-14.691764],[40.477251,-15.406294],[40.089264,-16.100774],[39.452559,-16.720891],[38.538351,-17.101023],[37.411133,-17.586368],[36.281279,-18.659688],[35.896497,-18.84226],[35.1984,-19.552811],[34.786383,-19.784012],[34.701893,-20.497043],[35.176127,-21.254361],[35.373428,-21.840837],[35.385848,-22.14],[35.562546,-22.09],[35.533935,-23.070788],[35.371774,-23.535359],[35.60747,-23.706563],[35.458746,-24.12261],[35.040735,-24.478351],[34.215824,-24.816314],[33.01321,-25.357573],[32.574632,-25.727318],[32.660363,-26.148584],[32.915955,-26.215867],[32.83012,-26.742192],[32.071665,-26.73382],[31.985779,-26.29178],[31.837778,-25.843332],[31.752408,-25.484284],[31.930589,-24.369417],[31.670398,-23.658969],[31.191409,-22.25151],[32.244988,-21.116489],[32.508693,-20.395292],[32.659743,-20.30429],[32.772708,-19.715592],[32.611994,-19.419383],[32.654886,-18.67209],[32.849861,-17.979057],[32.847639,-16.713398],[32.328239,-16.392074],[31.852041,-16.319417],[31.636498,-16.07199],[31.173064,-15.860944],[30.338955,-15.880839],[30.274256,-15.507787],[30.179481,-14.796099],[33.214025,-13.97186],[33.7897,-14.451831],[34.064825,-14.35995],[34.459633,-14.61301],[34.517666,-15.013709],[34.307291,-15.478641],[34.381292,-16.18356],[35.03381,-16.8013],[35.339063,-16.10744],[35.771905,-15.896859],[35.686845,-14.611046],[35.267956,-13.887834],[34.907151,-13.565425],[34.559989,-13.579998],[34.280006,-12.280025],[34.559989,-11.52002]]]},"id":"MOZ"},{"type":"Feature","properties":{"name":"Malawi"},"geometry":{"type":"Polygon","coordinates":[[[34.559989,-11.52002],[34.280006,-12.280025],[34.559989,-13.579998],[34.907151,-13.565425],[35.267956,-13.887834],[35.686845,-14.611046],[35.771905,-15.896859],[35.339063,-16.10744],[35.03381,-16.8013],[34.381292,-16.18356],[34.307291,-15.478641],[34.517666,-15.013709],[34.459633,-14.61301],[34.064825,-14.35995],[33.7897,-14.451831],[33.214025,-13.97186],[32.688165,-13.712858],[32.991764,-12.783871],[33.306422,-12.435778],[33.114289,-11.607198],[33.31531,-10.79655],[33.485688,-10.525559],[33.231388,-9.676722],[32.759375,-9.230599],[33.739729,-9.417151],[33.940838,-9.693674],[34.280006,-10.16],[34.559989,-11.52002]]]},"id":"MWI"},{"type":"Feature","properties":{"name":"Malaysia"},"geometry":{"type":"MultiPolygon","coordinates":[[[[101.075516,6.204867],[101.154219,5.691384],[101.814282,5.810808],[102.141187,6.221636],[102.371147,6.128205],[102.961705,5.524495],[103.381215,4.855001],[103.438575,4.181606],[103.332122,3.726698],[103.429429,3.382869],[103.502448,2.791019],[103.854674,2.515454],[104.247932,1.631141],[104.228811,1.293048],[103.519707,1.226334],[102.573615,1.967115],[101.390638,2.760814],[101.27354,3.270292],[100.695435,3.93914],[100.557408,4.76728],[100.196706,5.312493],[100.30626,6.040562],[100.085757,6.464489],[100.259596,6.642825],[101.075516,6.204867]]],[[[118.618321,4.478202],[117.882035,4.137551],[117.015214,4.306094],[115.865517,4.306559],[115.519078,3.169238],[115.134037,2.821482],[114.621355,1.430688],[113.80585,1.217549],[112.859809,1.49779],[112.380252,1.410121],[111.797548,0.904441],[111.159138,0.976478],[110.514061,0.773131],[109.830227,1.338136],[109.66326,2.006467],[110.396135,1.663775],[111.168853,1.850637],[111.370081,2.697303],[111.796928,2.885897],[112.995615,3.102395],[113.712935,3.893509],[114.204017,4.525874],[114.659596,4.007637],[114.869557,4.348314],[115.347461,4.316636],[115.4057,4.955228],[115.45071,5.44773],[116.220741,6.143191],[116.725103,6.924771],[117.129626,6.928053],[117.643393,6.422166],[117.689075,5.98749],[118.347691,5.708696],[119.181904,5.407836],[119.110694,5.016128],[118.439727,4.966519],[118.618321,4.478202]]]]},"id":"MYS"},{"type":"Feature","properties":{"name":"Namibia"},"geometry":{"type":"Polygon","coordinates":[[[16.344977,-28.576705],[15.601818,-27.821247],[15.210472,-27.090956],[14.989711,-26.117372],[14.743214,-25.39292],[14.408144,-23.853014],[14.385717,-22.656653],[14.257714,-22.111208],[13.868642,-21.699037],[13.352498,-20.872834],[12.826845,-19.673166],[12.608564,-19.045349],[11.794919,-18.069129],[11.734199,-17.301889],[12.215461,-17.111668],[12.814081,-16.941343],[13.462362,-16.971212],[14.058501,-17.423381],[14.209707,-17.353101],[18.263309,-17.309951],[18.956187,-17.789095],[21.377176,-17.930636],[23.215048,-17.523116],[24.033862,-17.295843],[24.682349,-17.353411],[25.07695,-17.578823],[25.084443,-17.661816],[24.520705,-17.887125],[24.217365,-17.889347],[23.579006,-18.281261],[23.196858,-17.869038],[21.65504,-18.219146],[20.910641,-18.252219],[20.881134,-21.814327],[19.895458,-21.849157],[19.895768,-24.76779],[19.894734,-28.461105],[19.002127,-28.972443],[18.464899,-29.045462],[17.836152,-28.856378],[17.387497,-28.783514],[17.218929,-28.355943],[16.824017,-28.082162],[16.344977,-28.576705]]]},"id":"NAM"},{"type":"Feature","properties":{"name":"Nepal"},"geometry":{"type":"Polygon","coordinates":[[[88.120441,27.876542],[88.043133,27.445819],[88.174804,26.810405],[88.060238,26.414615],[87.227472,26.397898],[86.024393,26.630985],[85.251779,26.726198],[84.675018,27.234901],[83.304249,27.364506],[81.999987,27.925479],[81.057203,28.416095],[80.088425,28.79447],[80.476721,29.729865],[81.111256,30.183481],[81.525804,30.422717],[82.327513,30.115268],[83.337115,29.463732],[83.898993,29.320226],[84.23458,28.839894],[85.011638,28.642774],[85.82332,28.203576],[86.954517,27.974262],[88.120441,27.876542]]]},"id":"NPL"},{"type":"Feature","properties":{"name":"Oman"},"geometry":{"type":"MultiPolygon","coordinates":[[[[58.861141,21.114035],[58.487986,20.428986],[58.034318,20.481437],[57.826373,20.243002],[57.665762,19.736005],[57.7887,19.06757],[57.694391,18.94471],[57.234264,18.947991],[56.609651,18.574267],[56.512189,18.087113],[56.283521,17.876067],[55.661492,17.884128],[55.269939,17.632309],[55.2749,17.228354],[54.791002,16.950697],[54.239253,17.044981],[53.570508,16.707663],[53.108573,16.651051],[52.782184,17.349742],[52.00001,19.000003],[54.999982,19.999994],[55.666659,22.000001],[55.208341,22.70833],[55.234489,23.110993],[55.525841,23.524869],[55.528632,23.933604],[55.981214,24.130543],[55.804119,24.269604],[55.886233,24.920831],[56.396847,24.924732],[56.84514,24.241673],[57.403453,23.878594],[58.136948,23.747931],[58.729211,23.565668],[59.180502,22.992395],[59.450098,22.660271],[59.80806,22.533612],[59.806148,22.310525],[59.442191,21.714541],[59.282408,21.433886],[58.861141,21.114035]]],[[[56.391421,25.895991],[56.261042,25.714606],[56.070821,26.055464],[56.362017,26.395934],[56.485679,26.309118],[56.391421,25.895991]]]]},"id":"OMN"},{"type":"Feature","properties":{"name":"Pakistan"},"geometry":{"type":"Polygon","coordinates":[[[75.158028,37.133031],[75.896897,36.666806],[76.192848,35.898403],[77.837451,35.49401],[76.871722,34.653544],[75.757061,34.504923],[74.240203,34.748887],[73.749948,34.317699],[74.104294,33.441473],[74.451559,32.7649],[75.258642,32.271105],[74.405929,31.692639],[74.42138,30.979815],[73.450638,29.976413],[72.823752,28.961592],[71.777666,27.91318],[70.616496,27.989196],[69.514393,26.940966],[70.168927,26.491872],[70.282873,25.722229],[70.844699,25.215102],[71.04324,24.356524],[68.842599,24.359134],[68.176645,23.691965],[67.443667,23.944844],[67.145442,24.663611],[66.372828,25.425141],[64.530408,25.237039],[62.905701,25.218409],[61.497363,25.078237],[61.874187,26.239975],[63.316632,26.756532],[63.233898,27.217047],[62.755426,27.378923],[62.72783,28.259645],[61.771868,28.699334],[61.369309,29.303276],[60.874248,29.829239],[62.549857,29.318572],[63.550261,29.468331],[64.148002,29.340819],[64.350419,29.560031],[65.046862,29.472181],[66.346473,29.887943],[66.381458,30.738899],[66.938891,31.304911],[67.683394,31.303154],[67.792689,31.58293],[68.556932,31.71331],[68.926677,31.620189],[69.317764,31.901412],[69.262522,32.501944],[69.687147,33.105499],[70.323594,33.358533],[69.930543,34.02012],[70.881803,33.988856],[71.156773,34.348911],[71.115019,34.733126],[71.613076,35.153203],[71.498768,35.650563],[71.262348,36.074388],[71.846292,36.509942],[72.920025,36.720007],[74.067552,36.836176],[74.575893,37.020841],[75.158028,37.133031]]]},"id":"PAK"},{"type":"Feature","properties":{"name":"Philippines"},"geometry":{"type":"MultiPolygon","coordinates":[[[[126.376814,8.414706],[126.478513,7.750354],[126.537424,7.189381],[126.196773,6.274294],[125.831421,7.293715],[125.363852,6.786485],[125.683161,6.049657],[125.396512,5.581003],[124.219788,6.161355],[123.93872,6.885136],[124.243662,7.36061],[123.610212,7.833527],[123.296071,7.418876],[122.825506,7.457375],[122.085499,6.899424],[121.919928,7.192119],[122.312359,8.034962],[122.942398,8.316237],[123.487688,8.69301],[123.841154,8.240324],[124.60147,8.514158],[124.764612,8.960409],[125.471391,8.986997],[125.412118,9.760335],[126.222714,9.286074],[126.306637,8.782487],[126.376814,8.414706]]],[[[123.982438,10.278779],[123.623183,9.950091],[123.309921,9.318269],[122.995883,9.022189],[122.380055,9.713361],[122.586089,9.981045],[122.837081,10.261157],[122.947411,10.881868],[123.49885,10.940624],[123.337774,10.267384],[124.077936,11.232726],[123.982438,10.278779]]],[[[118.504581,9.316383],[117.174275,8.3675],[117.664477,9.066889],[118.386914,9.6845],[118.987342,10.376292],[119.511496,11.369668],[119.689677,10.554291],[119.029458,10.003653],[118.504581,9.316383]]],[[[121.883548,11.891755],[122.483821,11.582187],[123.120217,11.58366],[123.100838,11.165934],[122.637714,10.741308],[122.00261,10.441017],[121.967367,10.905691],[122.03837,11.415841],[121.883548,11.891755]]],[[[125.502552,12.162695],[125.783465,11.046122],[125.011884,11.311455],[125.032761,10.975816],[125.277449,10.358722],[124.801819,10.134679],[124.760168,10.837995],[124.459101,10.88993],[124.302522,11.495371],[124.891013,11.415583],[124.87799,11.79419],[124.266762,12.557761],[125.227116,12.535721],[125.502552,12.162695]]],[[[121.527394,13.06959],[121.26219,12.20556],[120.833896,12.704496],[120.323436,13.466413],[121.180128,13.429697],[121.527394,13.06959]]],[[[121.321308,18.504065],[121.937601,18.218552],[122.246006,18.47895],[122.336957,18.224883],[122.174279,17.810283],[122.515654,17.093505],[122.252311,16.262444],[121.662786,15.931018],[121.50507,15.124814],[121.728829,14.328376],[122.258925,14.218202],[122.701276,14.336541],[123.950295,13.782131],[123.855107,13.237771],[124.181289,12.997527],[124.077419,12.536677],[123.298035,13.027526],[122.928652,13.55292],[122.671355,13.185836],[122.03465,13.784482],[121.126385,13.636687],[120.628637,13.857656],[120.679384,14.271016],[120.991819,14.525393],[120.693336,14.756671],[120.564145,14.396279],[120.070429,14.970869],[119.920929,15.406347],[119.883773,16.363704],[120.286488,16.034629],[120.390047,17.599081],[120.715867,18.505227],[121.321308,18.504065]]]]},"id":"PHL"},{"type":"Feature","properties":{"name":"North Korea"},"geometry":{"type":"Polygon","coordinates":[[[130.640016,42.395009],[130.780007,42.220007],[130.400031,42.280004],[129.965949,41.941368],[129.667362,41.601104],[129.705189,40.882828],[129.188115,40.661808],[129.0104,40.485436],[128.633368,40.189847],[127.967414,40.025413],[127.533436,39.75685],[127.50212,39.323931],[127.385434,39.213472],[127.783343,39.050898],[128.349716,38.612243],[128.205746,38.370397],[127.780035,38.304536],[127.073309,38.256115],[126.68372,37.804773],[126.237339,37.840378],[126.174759,37.749686],[125.689104,37.94001],[125.568439,37.752089],[125.27533,37.669071],[125.240087,37.857224],[124.981033,37.948821],[124.712161,38.108346],[124.985994,38.548474],[125.221949,38.665857],[125.132859,38.848559],[125.38659,39.387958],[125.321116,39.551385],[124.737482,39.660344],[124.265625,39.928493],[125.079942,40.569824],[126.182045,41.107336],[126.869083,41.816569],[127.343783,41.503152],[128.208433,41.466772],[128.052215,41.994285],[129.596669,42.424982],[129.994267,42.985387],[130.640016,42.395009]]]},"id":"PRK"},{"type":"Feature","properties":{"name":"Qatar"},"geometry":{"type":"Polygon","coordinates":[[[50.810108,24.754743],[50.743911,25.482424],[51.013352,26.006992],[51.286462,26.114582],[51.589079,25.801113],[51.6067,25.21567],[51.389608,24.627386],[51.112415,24.556331],[50.810108,24.754743]]]},"id":"QAT"},{"type":"Feature","properties":{"name":"Rwanda"},"geometry":{"type":"Polygon","coordinates":[[[30.419105,-1.134659],[30.816135,-1.698914],[30.758309,-2.28725],[30.469696,-2.413858],[29.938359,-2.348487],[29.632176,-2.917858],[29.024926,-2.839258],[29.117479,-2.292211],[29.254835,-2.21511],[29.291887,-1.620056],[29.579466,-1.341313],[29.821519,-1.443322],[30.419105,-1.134659]]]},"id":"RWA"},{"type":"Feature","properties":{"name":"Saudi Arabia"},"geometry":{"type":"Polygon","coordinates":[[[42.779332,16.347891],[42.649573,16.774635],[42.347989,17.075806],[42.270888,17.474722],[41.754382,17.833046],[41.221391,18.6716],[40.939341,19.486485],[40.247652,20.174635],[39.801685,20.338862],[39.139399,21.291905],[39.023696,21.986875],[39.066329,22.579656],[38.492772,23.688451],[38.02386,24.078686],[37.483635,24.285495],[37.154818,24.858483],[37.209491,25.084542],[36.931627,25.602959],[36.639604,25.826228],[36.249137,26.570136],[35.640182,27.37652],[35.130187,28.063352],[34.632336,28.058546],[34.787779,28.607427],[34.83222,28.957483],[34.956037,29.356555],[36.068941,29.197495],[36.501214,29.505254],[36.740528,29.865283],[37.503582,30.003776],[37.66812,30.338665],[37.998849,30.5085],[37.002166,31.508413],[39.004886,32.010217],[39.195468,32.161009],[40.399994,31.889992],[41.889981,31.190009],[44.709499,29.178891],[46.568713,29.099025],[47.459822,29.002519],[47.708851,28.526063],[48.416094,28.552004],[48.807595,27.689628],[49.299554,27.461218],[49.470914,27.109999],[50.152422,26.689663],[50.212935,26.277027],[50.113303,25.943972],[50.239859,25.60805],[50.527387,25.327808],[50.660557,24.999896],[50.810108,24.754743],[51.112415,24.556331],[51.389608,24.627386],[51.579519,24.245497],[51.617708,24.014219],[52.000733,23.001154],[55.006803,22.496948],[55.208341,22.70833],[55.666659,22.000001],[54.999982,19.999994],[52.00001,19.000003],[49.116672,18.616668],[48.183344,18.166669],[47.466695,17.116682],[47.000005,16.949999],[46.749994,17.283338],[46.366659,17.233315],[45.399999,17.333335],[45.216651,17.433329],[44.062613,17.410359],[43.791519,17.319977],[43.380794,17.579987],[43.115798,17.08844],[43.218375,16.66689],[42.779332,16.347891]]]},"id":"SAU"},{"type":"Feature","properties":{"name":"Sudan"},"geometry":{"type":"Polygon","coordinates":[[[33.963393,9.464285],[33.824963,9.484061],[33.842131,9.981915],[33.721959,10.325262],[33.206938,10.720112],[33.086766,11.441141],[33.206938,12.179338],[32.743419,12.248008],[32.67475,12.024832],[32.073892,11.97333],[32.314235,11.681484],[32.400072,11.080626],[31.850716,10.531271],[31.352862,9.810241],[30.837841,9.707237],[29.996639,10.290927],[29.618957,10.084919],[29.515953,9.793074],[29.000932,9.604232],[28.966597,9.398224],[27.97089,9.398224],[27.833551,9.604232],[27.112521,9.638567],[26.752006,9.466893],[26.477328,9.55273],[25.962307,10.136421],[25.790633,10.411099],[25.069604,10.27376],[24.794926,9.810241],[24.537415,8.917538],[24.194068,8.728696],[23.88698,8.61973],[23.805813,8.666319],[23.459013,8.954286],[23.394779,9.265068],[23.55725,9.681218],[23.554304,10.089255],[22.977544,10.714463],[22.864165,11.142395],[22.87622,11.38461],[22.50869,11.67936],[22.49762,12.26024],[22.28801,12.64605],[21.93681,12.58818],[22.03759,12.95546],[22.29658,13.37232],[22.18329,13.78648],[22.51202,14.09318],[22.30351,14.32682],[22.56795,14.94429],[23.02459,15.68072],[23.88689,15.61084],[23.83766,19.58047],[23.85,20],[25,20.00304],[25,22],[29.02,22],[32.9,22],[36.86623,22],[37.18872,21.01885],[36.96941,20.83744],[37.1147,19.80796],[37.48179,18.61409],[37.86276,18.36786],[38.41009,17.998307],[37.904,17.42754],[37.16747,17.26314],[36.85253,16.95655],[36.75389,16.29186],[36.32322,14.82249],[36.42951,14.42211],[36.27022,13.56333],[35.86363,12.57828],[35.26049,12.08286],[34.83163,11.31896],[34.73115,10.91017],[34.25745,10.63009],[33.96162,9.58358],[33.963393,9.464285]]]},"id":"SDN"},{"type":"Feature","properties":{"name":"South Sudan"},"geometry":{"type":"Polygon","coordinates":[[[33.963393,9.464285],[33.97498,8.68456],[33.8255,8.37916],[33.2948,8.35458],[32.95418,7.78497],[33.56829,7.71334],[34.0751,7.22595],[34.25032,6.82607],[34.70702,6.59422],[35.298007,5.506],[34.620196,4.847123],[34.005,4.249885],[33.39,3.79],[32.68642,3.79232],[31.88145,3.55827],[31.24556,3.7819],[30.83385,3.50917],[29.95349,4.1737],[29.715995,4.600805],[29.159078,4.389267],[28.696678,4.455077],[28.428994,4.287155],[27.979977,4.408413],[27.374226,5.233944],[27.213409,5.550953],[26.465909,5.946717],[26.213418,6.546603],[25.796648,6.979316],[25.124131,7.500085],[25.114932,7.825104],[24.567369,8.229188],[23.88698,8.61973],[24.194068,8.728696],[24.537415,8.917538],[24.794926,9.810241],[25.069604,10.27376],[25.790633,10.411099],[25.962307,10.136421],[26.477328,9.55273],[26.752006,9.466893],[27.112521,9.638567],[27.833551,9.604232],[27.97089,9.398224],[28.966597,9.398224],[29.000932,9.604232],[29.515953,9.793074],[29.618957,10.084919],[29.996639,10.290927],[30.837841,9.707237],[31.352862,9.810241],[31.850716,10.531271],[32.400072,11.080626],[32.314235,11.681484],[32.073892,11.97333],[32.67475,12.024832],[32.743419,12.248008],[33.206938,12.179338],[33.086766,11.441141],[33.206938,10.720112],[33.721959,10.325262],[33.842131,9.981915],[33.824963,9.484061],[33.963393,9.464285]]]},"id":"SDS"},{"type":"Feature","properties":{"name":"Somaliland"},"geometry":{"type":"Polygon","coordinates":[[[48.93813,9.451749],[48.486736,8.837626],[47.78942,8.003],[46.948328,7.996877],[43.67875,9.18358],[43.296975,9.540477],[42.92812,10.02194],[42.55876,10.57258],[42.776852,10.926879],[43.145305,11.46204],[43.47066,11.27771],[43.666668,10.864169],[44.117804,10.445538],[44.614259,10.442205],[45.556941,10.698029],[46.645401,10.816549],[47.525658,11.127228],[48.021596,11.193064],[48.378784,11.375482],[48.948206,11.410622],[48.942005,11.394266],[48.938491,10.982327],[48.938233,9.9735],[48.93813,9.451749]]]},"id":"ABV"},{"type":"Feature","properties":{"name":"Somalia"},"geometry":{"type":"Polygon","coordinates":[[[49.72862,11.5789],[50.25878,11.67957],[50.73202,12.0219],[51.1112,12.02464],[51.13387,11.74815],[51.04153,11.16651],[51.04531,10.6409],[50.83418,10.27972],[50.55239,9.19874],[50.07092,8.08173],[49.4527,6.80466],[48.59455,5.33911],[47.74079,4.2194],[46.56476,2.85529],[45.56399,2.04576],[44.06815,1.05283],[43.13597,0.2922],[42.04157,-0.91916],[41.81095,-1.44647],[41.58513,-1.68325],[40.993,-0.85829],[40.98105,2.78452],[41.855083,3.918912],[42.12861,4.23413],[42.76967,4.25259],[43.66087,4.95755],[44.9636,5.00162],[47.78942,8.003],[48.486736,8.837626],[48.93813,9.451749],[48.938233,9.9735],[48.938491,10.982327],[48.942005,11.394266],[48.948205,11.410617],[49.26776,11.43033],[49.72862,11.5789]]]},"id":"SOM"},{"type":"Feature","properties":{"name":"Swaziland"},"geometry":{"type":"Polygon","coordinates":[[[32.071665,-26.73382],[31.86806,-27.177927],[31.282773,-27.285879],[30.685962,-26.743845],[30.676609,-26.398078],[30.949667,-26.022649],[31.04408,-25.731452],[31.333158,-25.660191],[31.837778,-25.843332],[31.985779,-26.29178],[32.071665,-26.73382]]]},"id":"SWZ"},{"type":"Feature","properties":{"name":"Syria"},"geometry":{"type":"Polygon","coordinates":[[[38.792341,33.378686],[36.834062,32.312938],[35.719918,32.709192],[35.700798,32.716014],[35.836397,32.868123],[35.821101,33.277426],[36.06646,33.824912],[36.61175,34.201789],[36.448194,34.593935],[35.998403,34.644914],[35.905023,35.410009],[36.149763,35.821535],[36.41755,36.040617],[36.685389,36.259699],[36.739494,36.81752],[37.066761,36.623036],[38.167727,36.90121],[38.699891,36.712927],[39.52258,36.716054],[40.673259,37.091276],[41.212089,37.074352],[42.349591,37.229873],[41.837064,36.605854],[41.289707,36.358815],[41.383965,35.628317],[41.006159,34.419372],[38.792341,33.378686]]]},"id":"SYR"},{"type":"Feature","properties":{"name":"Thailand"},"geometry":{"type":"Polygon","coordinates":[[[102.584932,12.186595],[101.687158,12.64574],[100.83181,12.627085],[100.978467,13.412722],[100.097797,13.406856],[100.018733,12.307001],[99.478921,10.846367],[99.153772,9.963061],[99.222399,9.239255],[99.873832,9.207862],[100.279647,8.295153],[100.459274,7.429573],[101.017328,6.856869],[101.623079,6.740622],[102.141187,6.221636],[101.814282,5.810808],[101.154219,5.691384],[101.075516,6.204867],[100.259596,6.642825],[100.085757,6.464489],[99.690691,6.848213],[99.519642,7.343454],[98.988253,7.907993],[98.503786,8.382305],[98.339662,7.794512],[98.150009,8.350007],[98.25915,8.973923],[98.553551,9.93296],[99.038121,10.960546],[99.587286,11.892763],[99.196354,12.804748],[99.212012,13.269294],[99.097755,13.827503],[98.430819,14.622028],[98.192074,15.123703],[98.537376,15.308497],[98.903348,16.177824],[98.493761,16.837836],[97.859123,17.567946],[97.375896,18.445438],[97.797783,18.62708],[98.253724,19.708203],[98.959676,19.752981],[99.543309,20.186598],[100.115988,20.41785],[100.548881,20.109238],[100.606294,19.508344],[101.282015,19.462585],[101.035931,18.408928],[101.059548,17.512497],[102.113592,18.109102],[102.413005,17.932782],[102.998706,17.961695],[103.200192,18.309632],[103.956477,18.240954],[104.716947,17.428859],[104.779321,16.441865],[105.589039,15.570316],[105.544338,14.723934],[105.218777,14.273212],[104.281418,14.416743],[102.988422,14.225721],[102.348099,13.394247],[102.584932,12.186595]]]},"id":"THA"},{"type":"Feature","properties":{"name":"Tajikistan"},"geometry":{"type":"Polygon","coordinates":[[[71.014198,40.244366],[70.648019,39.935754],[69.55961,40.103211],[69.464887,39.526683],[70.549162,39.604198],[71.784694,39.279463],[73.675379,39.431237],[73.928852,38.505815],[74.257514,38.606507],[74.864816,38.378846],[74.829986,37.990007],[74.980002,37.41999],[73.948696,37.421566],[73.260056,37.495257],[72.63689,37.047558],[72.193041,36.948288],[71.844638,36.738171],[71.448693,37.065645],[71.541918,37.905774],[71.239404,37.953265],[71.348131,38.258905],[70.806821,38.486282],[70.376304,38.138396],[70.270574,37.735165],[70.116578,37.588223],[69.518785,37.608997],[69.196273,37.151144],[68.859446,37.344336],[68.135562,37.023115],[67.83,37.144994],[68.392033,38.157025],[68.176025,38.901553],[67.44222,39.140144],[67.701429,39.580478],[68.536416,39.533453],[69.011633,40.086158],[69.329495,40.727824],[70.666622,40.960213],[70.45816,40.496495],[70.601407,40.218527],[71.014198,40.244366]]]},"id":"TJK"},{"type":"Feature","properties":{"name":"Turkmenistan"},"geometry":{"type":"Polygon","coordinates":[[[61.210817,35.650072],[61.123071,36.491597],[60.377638,36.527383],[59.234762,37.412988],[58.436154,37.522309],[57.330434,38.029229],[56.619366,38.121394],[56.180375,37.935127],[55.511578,37.964117],[54.800304,37.392421],[53.921598,37.198918],[53.735511,37.906136],[53.880929,38.952093],[53.101028,39.290574],[53.357808,39.975286],[52.693973,40.033629],[52.915251,40.876523],[53.858139,40.631034],[54.736845,40.951015],[54.008311,41.551211],[53.721713,42.123191],[52.91675,41.868117],[52.814689,41.135371],[52.50246,41.783316],[52.944293,42.116034],[54.079418,42.324109],[54.755345,42.043971],[55.455251,41.259859],[55.968191,41.308642],[57.096391,41.32231],[56.932215,41.826026],[57.78653,42.170553],[58.629011,42.751551],[59.976422,42.223082],[60.083341,41.425146],[60.465953,41.220327],[61.547179,41.26637],[61.882714,41.084857],[62.37426,40.053886],[63.518015,39.363257],[64.170223,38.892407],[65.215999,38.402695],[66.54615,37.974685],[66.518607,37.362784],[66.217385,37.39379],[65.745631,37.661164],[65.588948,37.305217],[64.746105,37.111818],[64.546479,36.312073],[63.982896,36.007957],[63.193538,35.857166],[62.984662,35.404041],[62.230651,35.270664],[61.210817,35.650072]]]},"id":"TKM"},{"type":"Feature","properties":{"name":"East Timor"},"geometry":{"type":"Polygon","coordinates":[[[124.968682,-8.89279],[125.086246,-8.656887],[125.947072,-8.432095],[126.644704,-8.398247],[126.957243,-8.273345],[127.335928,-8.397317],[126.967992,-8.668256],[125.925885,-9.106007],[125.08852,-9.393173],[125.07002,-9.089987],[124.968682,-8.89279]]]},"id":"TLS"},{"type":"Feature","properties":{"name":"Turkey"},"geometry":{"type":"MultiPolygon","coordinates":[[[[36.913127,41.335358],[38.347665,40.948586],[39.512607,41.102763],[40.373433,41.013673],[41.554084,41.535656],[42.619549,41.583173],[43.582746,41.092143],[43.752658,40.740201],[43.656436,40.253564],[44.400009,40.005],[44.79399,39.713003],[44.109225,39.428136],[44.421403,38.281281],[44.225756,37.971584],[44.772699,37.170445],[44.293452,37.001514],[43.942259,37.256228],[42.779126,37.385264],[42.349591,37.229873],[41.212089,37.074352],[40.673259,37.091276],[39.52258,36.716054],[38.699891,36.712927],[38.167727,36.90121],[37.066761,36.623036],[36.739494,36.81752],[36.685389,36.259699],[36.41755,36.040617],[36.149763,35.821535],[35.782085,36.274995],[36.160822,36.650606],[35.550936,36.565443],[34.714553,36.795532],[34.026895,36.21996],[32.509158,36.107564],[31.699595,36.644275],[30.621625,36.677865],[30.391096,36.262981],[29.699976,36.144357],[28.732903,36.676831],[27.641187,36.658822],[27.048768,37.653361],[26.318218,38.208133],[26.8047,38.98576],[26.170785,39.463612],[27.28002,40.420014],[28.819978,40.460011],[29.240004,41.219991],[31.145934,41.087622],[32.347979,41.736264],[33.513283,42.01896],[35.167704,42.040225],[36.913127,41.335358]]],[[[27.192377,40.690566],[26.358009,40.151994],[26.043351,40.617754],[26.056942,40.824123],[26.294602,40.936261],[26.604196,41.562115],[26.117042,41.826905],[27.135739,42.141485],[27.99672,42.007359],[28.115525,41.622886],[28.988443,41.299934],[28.806438,41.054962],[27.619017,40.999823],[27.192377,40.690566]]]]},"id":"TUR"},{"type":"Feature","properties":{"name":"Taiwan"},"geometry":{"type":"Polygon","coordinates":[[[121.777818,24.394274],[121.175632,22.790857],[120.74708,21.970571],[120.220083,22.814861],[120.106189,23.556263],[120.69468,24.538451],[121.495044,25.295459],[121.951244,24.997596],[121.777818,24.394274]]]},"id":"TWN"},{"type":"Feature","properties":{"name":"United Republic of Tanzania"},"geometry":{"type":"Polygon","coordinates":[[[33.903711,-0.95],[34.07262,-1.05982],[37.69869,-3.09699],[37.7669,-3.67712],[39.20222,-4.67677],[38.74054,-5.90895],[38.79977,-6.47566],[39.44,-6.84],[39.47,-7.1],[39.19469,-7.7039],[39.25203,-8.00781],[39.18652,-8.48551],[39.53574,-9.11237],[39.9496,-10.0984],[40.31659,-10.3171],[39.521,-10.89688],[38.427557,-11.285202],[37.82764,-11.26879],[37.47129,-11.56876],[36.775151,-11.594537],[36.514082,-11.720938],[35.312398,-11.439146],[34.559989,-11.52002],[34.28,-10.16],[33.940838,-9.693674],[33.73972,-9.41715],[32.759375,-9.230599],[32.191865,-8.930359],[31.556348,-8.762049],[31.157751,-8.594579],[30.74,-8.34],[30.2,-7.08],[29.62,-6.52],[29.419993,-5.939999],[29.519987,-5.419979],[29.339998,-4.499983],[29.753512,-4.452389],[30.11632,-4.09012],[30.50554,-3.56858],[30.75224,-3.35931],[30.74301,-3.03431],[30.52766,-2.80762],[30.46967,-2.41383],[30.758309,-2.28725],[30.816135,-1.698914],[30.419105,-1.134659],[30.76986,-1.01455],[31.86617,-1.02736],[33.903711,-0.95]]]},"id":"TZA"},{"type":"Feature","properties":{"name":"Uganda"},"geometry":{"type":"Polygon","coordinates":[[[31.86617,-1.02736],[30.76986,-1.01455],[30.419105,-1.134659],[29.821519,-1.443322],[29.579466,-1.341313],[29.587838,-0.587406],[29.8195,-0.2053],[29.875779,0.59738],[30.086154,1.062313],[30.468508,1.583805],[30.85267,1.849396],[31.174149,2.204465],[30.77332,2.33989],[30.83385,3.50917],[31.24556,3.7819],[31.88145,3.55827],[32.68642,3.79232],[33.39,3.79],[34.005,4.249885],[34.47913,3.5556],[34.59607,3.05374],[35.03599,1.90584],[34.6721,1.17694],[34.18,0.515],[33.893569,0.109814],[33.903711,-0.95],[31.86617,-1.02736]]]},"id":"UGA"},{"type":"Feature","properties":{"name":"Uzbekistan"},"geometry":{"type":"Polygon","coordinates":[[[66.518607,37.362784],[66.54615,37.974685],[65.215999,38.402695],[64.170223,38.892407],[63.518015,39.363257],[62.37426,40.053886],[61.882714,41.084857],[61.547179,41.26637],[60.465953,41.220327],[60.083341,41.425146],[59.976422,42.223082],[58.629011,42.751551],[57.78653,42.170553],[56.932215,41.826026],[57.096391,41.32231],[55.968191,41.308642],[55.928917,44.995858],[58.503127,45.586804],[58.689989,45.500014],[60.239972,44.784037],[61.05832,44.405817],[62.0133,43.504477],[63.185787,43.650075],[64.900824,43.728081],[66.098012,42.99766],[66.023392,41.994646],[66.510649,41.987644],[66.714047,41.168444],[67.985856,41.135991],[68.259896,40.662325],[68.632483,40.668681],[69.070027,41.384244],[70.388965,42.081308],[70.962315,42.266154],[71.259248,42.167711],[70.420022,41.519998],[71.157859,41.143587],[71.870115,41.3929],[73.055417,40.866033],[71.774875,40.145844],[71.014198,40.244366],[70.601407,40.218527],[70.45816,40.496495],[70.666622,40.960213],[69.329495,40.727824],[69.011633,40.086158],[68.536416,39.533453],[67.701429,39.580478],[67.44222,39.140144],[68.176025,38.901553],[68.392033,38.157025],[67.83,37.144994],[67.075782,37.356144],[66.518607,37.362784]]]},"id":"UZB"},{"type":"Feature","properties":{"name":"Vietnam"},"geometry":{"type":"Polygon","coordinates":[[[108.05018,21.55238],[106.715068,20.696851],[105.881682,19.75205],[105.662006,19.058165],[106.426817,18.004121],[107.361954,16.697457],[108.269495,16.079742],[108.877107,15.276691],[109.33527,13.426028],[109.200136,11.666859],[108.36613,11.008321],[107.220929,10.364484],[106.405113,9.53084],[105.158264,8.59976],[104.795185,9.241038],[105.076202,9.918491],[104.334335,10.486544],[105.199915,10.88931],[106.24967,10.961812],[105.810524,11.567615],[107.491403,12.337206],[107.614548,13.535531],[107.382727,14.202441],[107.564525,15.202173],[107.312706,15.908538],[106.556008,16.604284],[105.925762,17.485315],[105.094598,18.666975],[103.896532,19.265181],[104.183388,19.624668],[104.822574,19.886642],[104.435,20.758733],[103.203861,20.766562],[102.754896,21.675137],[102.170436,22.464753],[102.706992,22.708795],[103.504515,22.703757],[104.476858,22.81915],[105.329209,23.352063],[105.811247,22.976892],[106.725403,22.794268],[106.567273,22.218205],[107.04342,21.811899],[108.05018,21.55238]]]},"id":"VNM"},{"type":"Feature","properties":{"name":"West Bank"},"geometry":{"type":"Polygon","coordinates":[[[35.545665,32.393992],[35.545252,31.782505],[35.397561,31.489086],[34.927408,31.353435],[34.970507,31.616778],[35.225892,31.754341],[34.974641,31.866582],[35.18393,32.532511],[35.545665,32.393992]]]},"id":"PSE"},{"type":"Feature","properties":{"name":"Yemen"},"geometry":{"type":"Polygon","coordinates":[[[53.108573,16.651051],[52.385206,16.382411],[52.191729,15.938433],[52.168165,15.59742],[51.172515,15.17525],[49.574576,14.708767],[48.679231,14.003202],[48.238947,13.94809],[47.938914,14.007233],[47.354454,13.59222],[46.717076,13.399699],[45.877593,13.347764],[45.62505,13.290946],[45.406459,13.026905],[45.144356,12.953938],[44.989533,12.699587],[44.494576,12.721653],[44.175113,12.58595],[43.482959,12.6368],[43.222871,13.22095],[43.251448,13.767584],[43.087944,14.06263],[42.892245,14.802249],[42.604873,15.213335],[42.805015,15.261963],[42.702438,15.718886],[42.823671,15.911742],[42.779332,16.347891],[43.218375,16.66689],[43.115798,17.08844],[43.380794,17.579987],[43.791519,17.319977],[44.062613,17.410359],[45.216651,17.433329],[45.399999,17.333335],[46.366659,17.233315],[46.749994,17.283338],[47.000005,16.949999],[47.466695,17.116682],[48.183344,18.166669],[49.116672,18.616668],[52.00001,19.000003],[52.782184,17.349742],[53.108573,16.651051]]]},"id":"YEM"},{"type":"Feature","properties":{"name":"South Africa"},"geometry":{"type":"Polygon","coordinates":[[[31.521001,-29.257387],[31.325561,-29.401978],[30.901763,-29.909957],[30.622813,-30.423776],[30.055716,-31.140269],[28.925553,-32.172041],[28.219756,-32.771953],[27.464608,-33.226964],[26.419452,-33.61495],[25.909664,-33.66704],[25.780628,-33.944646],[25.172862,-33.796851],[24.677853,-33.987176],[23.594043,-33.794474],[22.988189,-33.916431],[22.574157,-33.864083],[21.542799,-34.258839],[20.689053,-34.417175],[20.071261,-34.795137],[19.616405,-34.819166],[19.193278,-34.462599],[18.855315,-34.444306],[18.424643,-33.997873],[18.377411,-34.136521],[18.244499,-33.867752],[18.25008,-33.281431],[17.92519,-32.611291],[18.24791,-32.429131],[18.221762,-31.661633],[17.566918,-30.725721],[17.064416,-29.878641],[17.062918,-29.875954],[16.344977,-28.576705],[16.824017,-28.082162],[17.218929,-28.355943],[17.387497,-28.783514],[17.836152,-28.856378],[18.464899,-29.045462],[19.002127,-28.972443],[19.894734,-28.461105],[19.895768,-24.76779],[20.165726,-24.917962],[20.758609,-25.868136],[20.66647,-26.477453],[20.889609,-26.828543],[21.605896,-26.726534],[22.105969,-26.280256],[22.579532,-25.979448],[22.824271,-25.500459],[23.312097,-25.26869],[23.73357,-25.390129],[24.211267,-25.670216],[25.025171,-25.71967],[25.664666,-25.486816],[25.765849,-25.174845],[25.941652,-24.696373],[26.485753,-24.616327],[26.786407,-24.240691],[27.11941,-23.574323],[28.017236,-22.827754],[29.432188,-22.091313],[29.839037,-22.102216],[30.322883,-22.271612],[30.659865,-22.151567],[31.191409,-22.25151],[31.670398,-23.658969],[31.930589,-24.369417],[31.752408,-25.484284],[31.837778,-25.843332],[31.333158,-25.660191],[31.04408,-25.731452],[30.949667,-26.022649],[30.676609,-26.398078],[30.685962,-26.743845],[31.282773,-27.285879],[31.86806,-27.177927],[32.071665,-26.73382],[32.83012,-26.742192],[32.580265,-27.470158],[32.462133,-28.301011],[32.203389,-28.752405],[31.521001,-29.257387]],[[28.978263,-28.955597],[28.5417,-28.647502],[28.074338,-28.851469],[27.532511,-29.242711],[26.999262,-29.875954],[27.749397,-30.645106],[28.107205,-30.545732],[28.291069,-30.226217],[28.8484,-30.070051],[29.018415,-29.743766],[29.325166,-29.257387],[28.978263,-28.955597]]]},"id":"ZAF"},{"type":"Feature","properties":{"name":"Zambia"},"geometry":{"type":"Polygon","coordinates":[[[32.759375,-9.230599],[33.231388,-9.676722],[33.485688,-10.525559],[33.31531,-10.79655],[33.114289,-11.607198],[33.306422,-12.435778],[32.991764,-12.783871],[32.688165,-13.712858],[33.214025,-13.97186],[30.179481,-14.796099],[30.274256,-15.507787],[29.516834,-15.644678],[28.947463,-16.043051],[28.825869,-16.389749],[28.467906,-16.4684],[27.598243,-17.290831],[27.044427,-17.938026],[26.706773,-17.961229],[26.381935,-17.846042],[25.264226,-17.73654],[25.084443,-17.661816],[25.07695,-17.578823],[24.682349,-17.353411],[24.033862,-17.295843],[23.215048,-17.523116],[22.562478,-16.898451],[21.887843,-16.08031],[21.933886,-12.898437],[24.016137,-12.911046],[23.930922,-12.565848],[24.079905,-12.191297],[23.904154,-11.722282],[24.017894,-11.237298],[23.912215,-10.926826],[24.257155,-10.951993],[24.314516,-11.262826],[24.78317,-11.238694],[25.418118,-11.330936],[25.75231,-11.784965],[26.553088,-11.92444],[27.16442,-11.608748],[27.388799,-12.132747],[28.155109,-12.272481],[28.523562,-12.698604],[28.934286,-13.248958],[29.699614,-13.257227],[29.616001,-12.178895],[29.341548,-12.360744],[28.642417,-11.971569],[28.372253,-11.793647],[28.49607,-10.789884],[28.673682,-9.605925],[28.449871,-9.164918],[28.734867,-8.526559],[29.002912,-8.407032],[30.346086,-8.238257],[30.740015,-8.340007],[31.157751,-8.594579],[31.556348,-8.762049],[32.191865,-8.930359],[32.759375,-9.230599]]]},"id":"ZMB"},{"type":"Feature","properties":{"name":"Zimbabwe"},"geometry":{"type":"Polygon","coordinates":[[[31.191409,-22.25151],[30.659865,-22.151567],[30.322883,-22.271612],[29.839037,-22.102216],[29.432188,-22.091313],[28.794656,-21.639454],[28.02137,-21.485975],[27.727228,-20.851802],[27.724747,-20.499059],[27.296505,-20.39152],[26.164791,-19.293086],[25.850391,-18.714413],[25.649163,-18.536026],[25.264226,-17.73654],[26.381935,-17.846042],[26.706773,-17.961229],[27.044427,-17.938026],[27.598243,-17.290831],[28.467906,-16.4684],[28.825869,-16.389749],[28.947463,-16.043051],[29.516834,-15.644678],[30.274256,-15.507787],[30.338955,-15.880839],[31.173064,-15.860944],[31.636498,-16.07199],[31.852041,-16.319417],[32.328239,-16.392074],[32.847639,-16.713398],[32.849861,-17.979057],[32.654886,-18.67209],[32.611994,-19.419383],[32.772708,-19.715592],[32.659743,-20.30429],[32.508693,-20.395292],[32.244988,-21.116489],[31.191409,-22.25151]]]},"id":"ZWE"}]}